CITY,STATE,ZIP,Campaign
Los Angeles,CA,90029-3227,Rutgers Strong Camden Proud
Murrieta,CA,92562-5727,Rutgers Strong Camden Proud
San Diego,CA,92154-6355,Rutgers Strong Camden Proud
New Haven,CT,06511-4100,Rutgers Strong Camden Proud
Washington,DC,20020-1271,Rutgers Strong Camden Proud
Middletown,DE,19709-1508,Rutgers Strong Camden Proud
Vero Beach,FL,32968-4071,Rutgers Strong Camden Proud
Miami,FL,33176,Rutgers Strong Camden Proud
Lithia,FL,33547-3923,Rutgers Strong Camden Proud
Shelley,ID,83274-5033,Rutgers Strong Camden Proud
Chicago,IL,60641,Rutgers Strong Camden Proud
Carmel,IN,46032-7350,Rutgers Strong Camden Proud
Indianapolis,IN,46224-7731,Rutgers Strong Camden Proud
Louisville,KY,40204,Rutgers Strong Camden Proud
Madisonville,LA,70447-3011,Rutgers Strong Camden Proud
Springfield,MA,01107-1713,Rutgers Strong Camden Proud
Baltimore,MD,21215-2922,Rutgers Strong Camden Proud
Baltimore,MD,21286-1505,Rutgers Strong Camden Proud
Huntingtn Wds,MI,48070-1201,Rutgers Strong Camden Proud
Maplewood,MN,55117-2150,Rutgers Strong Camden Proud
Northfield,MN,55057-1574,Rutgers Strong Camden Proud
Saint Paul,MN,55102-4568,Rutgers Strong Camden Proud
Saint Paul,MN,55104-5160,Rutgers Strong Camden Proud
Laurel,MT,59044,Rutgers Strong Camden Proud
Cherry Hill,NJ,08034-3626,Rutgers Strong Camden Proud
Medford,NJ,08055-8938,Rutgers Strong Camden Proud
East Orange,NJ,07017-1047,Rutgers Strong Camden Proud
Magnolia,NJ,08049-1615,Rutgers Strong Camden Proud
Marlton,NJ,08053-3775,Rutgers Strong Camden Proud
Maple Shade,NJ,08052-3024,Rutgers Strong Camden Proud
Burlington,NJ,08016-4011,Rutgers Strong Camden Proud
Somerdale,NJ,08083-2045,Rutgers Strong Camden Proud
Willingboro,NJ,08046-2053,Rutgers Strong Camden Proud
Clementon,NJ,08021-5538,Rutgers Strong Camden Proud
Deptford,NJ,08096-3040,Rutgers Strong Camden Proud
East Orange,NJ,07017-4809,Rutgers Strong Camden Proud
Hackettstown,NJ,07840-5663,Rutgers Strong Camden Proud
Rochester,NY,14620-4127,Rutgers Strong Camden Proud
New York,NY,10032-3428,Rutgers Strong Camden Proud
Camden,NJ,08103,Rutgers Strong Camden Proud
Camden,NJ,08102,Rutgers Strong Camden Proud
Hillsborough,NJ,08844-4275,Rutgers Strong Camden Proud
Freehold,NJ,07728-8106,Rutgers Strong Camden Proud
Cherry Hill,NJ,08002-4711,Rutgers Strong Camden Proud
Audubon,NJ,08106-1511,Rutgers Strong Camden Proud
Montclair,NJ,07043-1903,Rutgers Strong Camden Proud
Willingboro,NJ,08046-2614,Rutgers Strong Camden Proud
Cherry Hill,NJ,08002-3219,Rutgers Strong Camden Proud
Millville,NJ,08332-1424,Rutgers Strong Camden Proud
Rutherford,NJ,07070-1802,Rutgers Strong Camden Proud
Somerset,NJ,08873-3540,Rutgers Strong Camden Proud
Atlantic City,NJ,08401-4239,Rutgers Strong Camden Proud
Manchester,NJ,08759-7118,Rutgers Strong Camden Proud
Cherry Hill,NJ,08003-3732,Rutgers Strong Camden Proud
Wood Ridge,NJ,07075-1034,Rutgers Strong Camden Proud
Pitman,NJ,8071,Rutgers Strong Camden Proud
Manchester,NJ,08759-5022,Rutgers Strong Camden Proud
Haddonfield,NJ,08033,Rutgers Strong Camden Proud
Camden,NJ,08102-1520,Rutgers Strong Camden Proud
Deptford,NJ,08096,Rutgers Strong Camden Proud
Lawrence Township,NJ,08648,Rutgers Strong Camden Proud
Summit,NJ,07901-1577,Rutgers Strong Camden Proud
Edison,NJ,08817-4030,Rutgers Strong Camden Proud
Orange,NJ,07050-2610,Rutgers Strong Camden Proud
Jersey City,NJ,07304-6149,Rutgers Strong Camden Proud
Lyndhurst,NJ,07071,Rutgers Strong Camden Proud
Cherry Hill,NJ,08002-3902,Rutgers Strong Camden Proud
Bellmawr,NJ,08031,Rutgers Strong Camden Proud
Mays Landing,NJ,08330,Rutgers Strong Camden Proud
Oaklyn,NJ,08107,Rutgers Strong Camden Proud
Hopatcong,NJ,07843-1705,Rutgers Strong Camden Proud
Deptford,NJ,08096-4320,Rutgers Strong Camden Proud
Toms River,NJ,08757-6301,Rutgers Strong Camden Proud
Camden,NJ,08105-3526,Rutgers Strong Camden Proud
Belle Mead,NJ,08502-4210,Rutgers Strong Camden Proud
Oradell,NJ,07649-2002,Rutgers Strong Camden Proud
Levittown,NY,11756-3001,Rutgers Strong Camden Proud
Philadelphia,PA,19124-1036,Rutgers Strong Camden Proud
BALA CYNWYD,PA,19004,Rutgers Strong Camden Proud
Bernville,PA,19506-8957,Rutgers Strong Camden Proud
Philadelphia,PA,19118-2633,Rutgers Strong Camden Proud
Brookhaven,PA,19015-2820,Rutgers Strong Camden Proud
Philadelphia,PA,19144-5223,Rutgers Strong Camden Proud
Philadelphia,PA,19143-3915,Rutgers Strong Camden Proud
New Braunfels,TX,78132-3548,Rutgers Strong Camden Proud
El Paso,TX,79912,Rutgers Strong Camden Proud
Mequon,WI,53097-2412,Rutgers Strong Camden Proud
Germantown,WI,53022-5679,Rutgers Strong Camden Proud