CITY,STATE,ZIP,MARKET,COMP,COMP2,MEDIA
COLLINGSWOOD,NJ,08108,Juniors,Accelerated Credits Program,We Want You More,Letter
STAFFORD TOWNSHIP,NJ,080507893,Juniors,Accelerated Credits Program,We Want You More,Letter
PENNSAUKEN,NJ,081106202,Juniors,Accelerated Credits Program,We Want You More,Letter
STRATFORD,NJ,08084,Juniors,Accelerated Credits Program,We Want You More,Letter
BERLIN,NJ,080099029,Juniors,Accelerated Credits Program,We Want You More,Letter
CAMDEN,NJ,081033225,Juniors,Accelerated Credits Program,We Want You More,Letter
SICKLERVILLE,NJ,080813403,Juniors,Accelerated Credits Program,We Want You More,Letter
CAMDEN,NJ,08102,Juniors,Accelerated Credits Program,We Want You More,Letter
CINNAMINSON,NJ,080772142,Juniors,Accelerated Credits Program,We Want You More,Letter
PISCATAWAY,NJ,088545739,Juniors,Accelerated Credits Program,We Want You More,Letter
EAST WINDSOR,NJ,085121433,Juniors,Accelerated Credits Program,We Want You More,Letter
LINDENWOLD,NJ,08021,Juniors,Accelerated Credits Program,We Want You More,Letter
E BRUNSWICK,NJ,088164225,Juniors,Accelerated Credits Program,We Want You More,Letter
MOUNT LAUREL,NJ,08054,Juniors,Accelerated Credits Program,We Want You More,Letter
NASHVILLE,TN,372074330,Juniors,Accelerated Credits Program,We Want You More,Letter
NEW BRUNSWICK,NJ,08901,Juniors,Accelerated Credits Program,We Want You More,Letter
CAMDEN,NJ,081051829,Juniors,Accelerated Credits Program,We Want You More,Letter
ENGLISHTOWN,NJ,07726,Juniors,Accelerated Credits Program,We Want You More,Letter
EAST BRUNSWICK,NJ,08816,Juniors,Accelerated Credits Program,We Want You More,Letter
BLACKWOOD,NJ,080124564,Juniors,Accelerated Credits Program,We Want You More,Letter
OTTAWA,,,Juniors,Accelerated Credits Program,We Want You More,Letter
NEW BRUNSWICK,NJ,08901,Juniors,Accelerated Credits Program,We Want You More,Letter
CARNEYS POINT,NJ,080691026,Juniors,Accelerated Credits Program,We Want You More,Letter
HOLMDEL,NJ,077331126,Juniors,Accelerated Credits Program,We Want You More,Letter
MORGANVILLE,NJ,077519740,Juniors,Accelerated Credits Program,We Want You More,Letter
MONTCLAIR,NJ,07042,Juniors,Accelerated Credits Program,We Want You More,Letter
ASBURY PARK,NJ,07712,Juniors,Accelerated Credits Program,We Want You More,Letter
MOUNT LAUREL,NJ,08054,Juniors,Accelerated Credits Program,We Want You More,Letter
HAMILTON,NJ,086103616,Juniors,Accelerated Credits Program,We Want You More,Letter
OAKLYN,NJ,081071103,Juniors,Accelerated Credits Program,We Want You More,Letter
COLLINGSWOOD,NJ,08108,Juniors,Accelerated Credits Program,We Want You More,Letter
PENNSAUKEN,NJ,081103603,Juniors,Accelerated Credits Program,We Want You More,Letter
CAMDEN,NJ,081043022,Juniors,Accelerated Credits Program,We Want You More,Letter
PENNSAUKEN TOWNSHIP,NJ,08109,Juniors,Accelerated Credits Program,We Want You More,Letter
SOMERDALE,NJ,080832053,Juniors,Accelerated Credits Program,We Want You More,Letter
CINNAMINSON,NJ,080771571,Juniors,Accelerated Credits Program,We Want You More,Letter
WEST BERLIN,NJ,08091,Juniors,Accelerated Credits Program,We Want You More,Letter
ATLANTIC CITY,NJ,084013033,Juniors,Accelerated Credits Program,We Want You More,Letter
PLEASANTVILLE,NJ,08232,Juniors,Accelerated Credits Program,We Want You More,Letter
SEWELL,NJ,08080,Juniors,Accelerated Credits Program,We Want You More,Letter
PARLIN,NJ,088592516,Juniors,Accelerated Credits Program,We Want You More,Letter
MANVILLE,NJ,088352334,Juniors,Accelerated Credits Program,We Want You More,Letter
BROWNS MILLS,NJ,080155910,Juniors,Accelerated Credits Program,We Want You More,Letter
BLACKWOOD,NJ,080123929,Juniors,Accelerated Credits Program,We Want You More,Letter
SICKLERVILLE,NJ,080815504,Juniors,Accelerated Credits Program,We Want You More,Letter
HAZLET,NJ,077302649,Juniors,Accelerated Credits Program,We Want You More,Letter
EGG HARBOR TOWNSHIP,NJ,082347904,Juniors,Accelerated Credits Program,We Want You More,Letter
CAMDEN,NJ,081042108,Juniors,Accelerated Credits Program,We Want You More,Letter
SICKLERVILLE,NJ,08081,Juniors,Accelerated Credits Program,We Want You More,Letter
CHERRY HILL,NJ,080033705,Juniors,Accelerated Credits Program,We Want You More,Letter
WEST DEPTFORD,NJ,080862000,Juniors,Accelerated Credits Program,We Want You More,Letter
BURLINGTON,NJ,080162234,Juniors,Accelerated Credits Program,We Want You More,Letter
SICKLERVILLE,NJ,080814700,Juniors,Accelerated Credits Program,We Want You More,Letter
MOUNT LAUREL,NJ,08054,Juniors,Accelerated Credits Program,We Want You More,Letter
MOUNT LAUREL,NJ,08054,Juniors,Accelerated Credits Program,We Want You More,Letter
ASBURY PARK,NJ,077123767,Juniors,Accelerated Credits Program,We Want You More,Letter
OAKLYN,NJ,081072419,Juniors,Accelerated Credits Program,We Want You More,Letter
STRATFORD,NJ,08084,Juniors,Accelerated Credits Program,We Want You More,Letter
CHERRY HILL,NJ,080341630,Juniors,Accelerated Credits Program,We Want You More,Letter
BAYONNE,NJ,07002,Juniors,Accelerated Credits Program,We Want You More,Letter
VINELAND,NJ,08360,Juniors,Accelerated Credits Program,We Want You More,Letter
GLOUCESTER CITY,NJ,080302037,Juniors,Accelerated Credits Program,We Want You More,Letter
CAMDEN,NJ,08104,Juniors,Accelerated Credits Program,We Want You More,Letter
MANTUA,NJ,80851,Juniors,Accelerated Credits Program,We Want You More,Letter
SICKLERVILLE,NJ,08081,Juniors,Accelerated Credits Program,We Want You More,Letter
CAMDEN,NJ,081054308,Juniors,Accelerated Credits Program,We Want You More,Letter
PHILA,PA,191202601,Juniors,Accelerated Credits Program,We Want You More,Letter
BLACKWOOD,NJ,080123934,Juniors,Accelerated Credits Program,We Want You More,Letter
SICKLERVILLE,NJ,080814949,Juniors,Accelerated Credits Program,We Want You More,Letter
CAMDEN,NJ,08104,Juniors,Accelerated Credits Program,We Want You More,Letter
WALL,NJ,07727,Juniors,Accelerated Credits Program,We Want You More,Letter
THE BRONX,NY,10466,Juniors,Accelerated Credits Program,We Want You More,Letter
HAMMONTON,NJ,08037,Juniors,Accelerated Credits Program,We Want You More,Letter
BROWNS MILLS,NJ,080155927,Juniors,Accelerated Credits Program,We Want You More,Letter
LINDENWOLD,NJ,080216709,Juniors,Accelerated Credits Program,We Want You More,Letter
CAMDEN,NJ,08105,Juniors,Accelerated Credits Program,We Want You More,Letter
SICKLERVILLE,NJ,080811321,Juniors,Accelerated Credits Program,We Want You More,Letter
SALEM,NJ,080791809,Juniors,Accelerated Credits Program,We Want You More,Letter
MOUNT LAUREL,NJ,080545722,Juniors,Accelerated Credits Program,We Want You More,Letter
PLAINFIELD,NJ,07060,Juniors,Accelerated Credits Program,We Want You More,Letter
MOUNT HOLLY,NJ,080601360,Juniors,Accelerated Credits Program,We Want You More,Letter
PENNSAUKEN,NJ,081092761,Juniors,Accelerated Credits Program,We Want You More,Letter
SICKLERVILLE,NJ,080819642,Juniors,Accelerated Credits Program,We Want You More,Letter
SEWELL,NJ,080801678,Juniors,Accelerated Credits Program,We Want You More,Letter
WOODBURY HTS,NJ,080971435,Juniors,Accelerated Credits Program,We Want You More,Letter
MOUNT LAUREL,NJ,08054,Juniors,Accelerated Credits Program,We Want You More,Letter
CAMDEN,NJ,081042852,Juniors,Accelerated Credits Program,We Want You More,Letter
DEPTFORD,NJ,080965339,Juniors,Accelerated Credits Program,We Want You More,Letter
BERLIN,NJ,08009,Juniors,Accelerated Credits Program,We Want You More,Letter
GLOUCESTER,NJ,08030,Juniors,Accelerated Credits Program,We Want You More,Letter
CHERRY HILL,NJ,080343329,Juniors,Accelerated Credits Program,We Want You More,Letter
EGG HARBOR TOWNSHIP,NJ,082344101,Juniors,Accelerated Credits Program,We Want You More,Letter
HAMILTON,NJ,086191156,Juniors,Accelerated Credits Program,We Want You More,Letter
CHERRY HILL,NJ,080341801,Juniors,Accelerated Credits Program,We Want You More,Letter
VOORHEES,NJ,08043,Juniors,Accelerated Credits Program,We Want You More,Letter
WEST BERLIN,NJ,08091,Juniors,Accelerated Credits Program,We Want You More,Letter
CLEMENTON,NJ,080215538,Juniors,Accelerated Credits Program,We Want You More,Letter
NEWARK,NJ,071081109,Juniors,Accelerated Credits Program,We Want You More,Letter
PENNSAUKEN,NJ,08110,Juniors,Accelerated Credits Program,We Want You More,Letter
GIBBSTOWN,NJ,080271211,Juniors,Accelerated Credits Program,We Want You More,Letter
CAMDEN,NJ,081054430,Juniors,Accelerated Credits Program,We Want You More,Letter
STRATFORD,NJ,080841100,Juniors,Accelerated Credits Program,We Want You More,Letter
CINNAMINSON,NJ,08077,Juniors,Accelerated Credits Program,We Want You More,Letter
CAMDEN,NJ,081052510,Juniors,Accelerated Credits Program,We Want You More,Letter
CLIFTON,NJ,07013,Juniors,Accelerated Credits Program,We Want You More,Letter
GLOUCESTER CITY,NJ,080301362,Juniors,Accelerated Credits Program,We Want You More,Letter
ATCO,NJ,080042920,Juniors,Accelerated Credits Program,We Want You More,Letter
WEST BERLIN,NJ,08091,Juniors,Accelerated Credits Program,We Want You More,Letter
ATCO,NJ,080041540,Juniors,Accelerated Credits Program,We Want You More,Letter
SOMERDALE,NJ,08083,Juniors,Accelerated Credits Program,We Want You More,Letter
MILLSTONE TOWNSHIP,NJ,085101705,Juniors,Accelerated Credits Program,We Want You More,Letter
ATCO,NJ,080042261,Juniors,Accelerated Credits Program,We Want You More,Letter
CAMDEN,NJ,08103,Juniors,Accelerated Credits Program,We Want You More,Letter
MAYS LANDING,NJ,08330,Juniors,Accelerated Credits Program,We Want You More,Letter
CHERRY HILL,NJ,080033644,Juniors,Accelerated Credits Program,We Want You More,Letter
SEWELL,NJ,080802212,Juniors,Accelerated Credits Program,We Want You More,Letter
JACKSON,NJ,085271183,Juniors,Accelerated Credits Program,We Want You More,Letter
CAMDEN,NJ,08104,Juniors,Accelerated Credits Program,We Want You More,Letter
CAMDEN,NJ,081052606,Juniors,Accelerated Credits Program,We Want You More,Letter
BLENHEIM,NJ,080123077,Juniors,Accelerated Credits Program,We Want You More,Letter
DELRAN,NJ,080752031,Juniors,Accelerated Credits Program,We Want You More,Letter
PLEASANTVILLE,NJ,08232,Juniors,Accelerated Credits Program,We Want You More,Letter
LINDENWOLD,NJ,080213510,Juniors,Accelerated Credits Program,We Want You More,Letter
BLACKWOOD,NJ,080122756,Juniors,Accelerated Credits Program,We Want You More,Letter
WEST DEPTFORD,NJ,08051,Juniors,Accelerated Credits Program,We Want You More,Letter
WESTAMPTON,NJ,080602363,Juniors,Accelerated Credits Program,We Want You More,Letter
CAMDEN,NJ,08104,Juniors,Accelerated Credits Program,We Want You More,Letter
ATCO,NJ,080041734,Juniors,Accelerated Credits Program,We Want You More,Letter
CHERRY HILL,NJ,080033418,Juniors,Accelerated Credits Program,We Want You More,Letter
CHERRY HILL,NJ,080033832,Juniors,Accelerated Credits Program,We Want You More,Letter
WEST BERLIN,NJ,080913810,Juniors,Accelerated Credits Program,We Want You More,Letter
HADDON TOWNSHIP,NJ,081082316,Juniors,Accelerated Credits Program,We Want You More,Letter
PENNSAUKEN,NJ,081103118,Juniors,Accelerated Credits Program,We Want You More,Letter
CHERRY HILL,NJ,08003,Juniors,Accelerated Credits Program,We Want You More,Letter
BERLIN,NJ,080091188,Juniors,Accelerated Credits Program,We Want You More,Letter
FARMINGDALE,NJ,077273513,Juniors,Accelerated Credits Program,We Want You More,Letter
WESTVILLE,NJ,080931418,Juniors,Accelerated Credits Program,We Want You More,Letter
PENNSAUKEN,NJ,08109,Juniors,Accelerated Credits Program,We Want You More,Letter
CHERRY HILL,NJ,08003,Juniors,Accelerated Credits Program,We Want You More,Letter
JACKSON TOWNSHIP,NJ,08527,Juniors,Accelerated Credits Program,We Want You More,Letter
PORTOLA HILLS,CA,92679,Juniors,Accelerated Credits Program,We Want You More,Letter
PRINCETON,NJ,085407652,Juniors,Accelerated Credits Program,We Want You More,Letter
PRINCETON,NJ,085407652,Juniors,Accelerated Credits Program,We Want You More,Letter
MEDFORD,NJ,080552331,Juniors,Accelerated Credits Program,We Want You More,Letter
PENNSAUKEN,NJ,081106130,Juniors,Accelerated Credits Program,We Want You More,Letter
OAKLYN,NJ,081071231,Juniors,Accelerated Credits Program,We Want You More,Letter
SICKLERVILLE,NJ,08081,Juniors,Accelerated Credits Program,We Want You More,Letter
MARTINSVILLE,NJ,088362143,Juniors,Accelerated Credits Program,We Want You More,Letter
PENNSAUKEN,NJ,081103133,Juniors,Accelerated Credits Program,We Want You More,Letter
MAPLE SHADE,NJ,080523111,Juniors,Accelerated Credits Program,We Want You More,Letter
CAMDEN,NJ,081051408,Juniors,Accelerated Credits Program,We Want You More,Letter
WILLINGBORO,NJ,080462601,Juniors,Accelerated Credits Program,We Want You More,Letter
OAKLYN,NJ,081071438,Juniors,Accelerated Credits Program,We Want You More,Letter
CHERRY HILL,NJ,08002,Juniors,Accelerated Credits Program,We Want You More,Letter
CAMDEN,NJ,08104,Juniors,Accelerated Credits Program,We Want You More,Letter
BERLIN,NJ,080091449,Juniors,Accelerated Credits Program,We Want You More,Letter
TURNERSVILLE,NJ,08012,Juniors,Accelerated Credits Program,We Want You More,Letter
CAMDEN,NJ,081041605,Juniors,Accelerated Credits Program,We Want You More,Letter
SICKLERVILLE,NJ,08081,Juniors,Accelerated Credits Program,We Want You More,Letter
PENNSAUKEN,NJ,081103609,Juniors,Accelerated Credits Program,We Want You More,Letter
MARLTON,NJ,08053,Juniors,Accelerated Credits Program,We Want You More,Letter
EGG HARBOR TOWNSHIP,NJ,082346013,Juniors,Accelerated Credits Program,We Want You More,Letter
COLLINGSWOOD,NJ,081081526,Juniors,Accelerated Credits Program,We Want You More,Letter
NORTH HALEDON,NJ,075082731,Juniors,Accelerated Credits Program,We Want You More,Letter
WESTVILLE,NJ,080931853,Juniors,Accelerated Credits Program,We Want You More,Letter
CAPE MAY COURT HOUSE,NJ,08210,Juniors,Accelerated Credits Program,We Want You More,Letter
CINNAMINSON,NJ,080773453,Juniors,Accelerated Credits Program,We Want You More,Letter
STRATFORD,NJ,08084,Juniors,Accelerated Credits Program,We Want You More,Letter
PHILA,PA,191362704,Juniors,Accelerated Credits Program,We Want You More,Letter
WOODBURY,NJ,08096,Juniors,Accelerated Credits Program,We Want You More,Letter
WOODBURY,NJ,08096,Juniors,Accelerated Credits Program,We Want You More,Letter
MANALAPAN,NJ,077269520,Juniors,Accelerated Credits Program,We Want You More,Letter
MAGNOLIA,NJ,080491015,Juniors,Accelerated Credits Program,We Want You More,Letter
DELRAN,NJ,080751615,Juniors,Accelerated Credits Program,We Want You More,Letter
BLACKWOOD,NJ,080125106,Juniors,Accelerated Credits Program,We Want You More,Letter
CAMDEN,NJ,08105,Juniors,Accelerated Credits Program,We Want You More,Letter
WILLINGBORO,NJ,080461808,Juniors,Accelerated Credits Program,We Want You More,Letter
SOMERDALE,NJ,08083,Juniors,Accelerated Credits Program,We Want You More,Letter
SOMERDALE,NJ,080831148,Juniors,Accelerated Credits Program,We Want You More,Letter
MAGNOLIA,NJ,08049,Juniors,Accelerated Credits Program,We Want You More,Letter
WOODSTOWN,NJ,080981335,Juniors,Accelerated Credits Program,We Want You More,Letter
BURLINGTON,NJ,08016,Juniors,Accelerated Credits Program,We Want You More,Letter
MOUNT EPHRAIM,NJ,08059,Juniors,Accelerated Credits Program,We Want You More,Letter
BERLIN,NJ,080099463,Juniors,Accelerated Credits Program,We Want You More,Letter
ROBBINSVILLE,NJ,086913446,Juniors,Accelerated Credits Program,We Want You More,Letter
CAMDEN,NJ,08102,Juniors,Accelerated Credits Program,We Want You More,Letter
CAMDEN,NJ,08103,Juniors,Accelerated Credits Program,We Want You More,Letter
WEST BERLIN,NJ,080913813,Juniors,Accelerated Credits Program,We Want You More,Letter
VOORHEES,NJ,08043,Juniors,Accelerated Credits Program,We Want You More,Letter
LINDENWOLD,NJ,08021,Juniors,Accelerated Credits Program,We Want You More,Letter
WOODBURY HTS,NJ,080971036,Juniors,Accelerated Credits Program,We Want You More,Letter
CHERRY HILL,NJ,08002,Juniors,Accelerated Credits Program,We Want You More,Letter
BLACKWOOD,NJ,08012,Juniors,Accelerated Credits Program,We Want You More,Letter
WILDWOOD,NJ,08260,Juniors,Accelerated Credits Program,We Want You More,Letter
MEDFORD,NJ,08055,Juniors,Accelerated Credits Program,We Want You More,Letter
MOUNT HOLLY,NJ,08060,Juniors,Accelerated Credits Program,We Want You More,Letter
PENNSUAKEN,NJ,08110,Juniors,Accelerated Credits Program,We Want You More,Letter
WEST DEPTFORD,NJ,080862008,Juniors,Accelerated Credits Program,We Want You More,Letter
ATCO,NJ,080041149,Juniors,Accelerated Credits Program,We Want You More,Letter
CAMDEN,NJ,08105,Juniors,Accelerated Credits Program,We Want You More,Letter
PENNSAUKEN,NJ,081091716,Juniors,Accelerated Credits Program,We Want You More,Letter
PENNSAUKEN,NJ,08110,Juniors,Accelerated Credits Program,We Want You More,Letter
MOUNT LAUREL,NJ,080546207,Juniors,Accelerated Credits Program,We Want You More,Letter
SICKLERVILLE,NJ,080813406,Juniors,Accelerated Credits Program,We Want You More,Letter
WENONAH,NJ,080901446,Juniors,Accelerated Credits Program,We Want You More,Letter
CAMDEN,NJ,08104,Juniors,Accelerated Credits Program,We Want You More,Letter
SICKLERVILLE,NJ,080813105,Juniors,Accelerated Credits Program,We Want You More,Letter
WILMINGTON,DE,19805,Juniors,Accelerated Credits Program,We Want You More,Letter
CREAM RIDGE,NJ,08514,Juniors,Accelerated Credits Program,We Want You More,Letter
NEWARK,NJ,07108,Juniors,Accelerated Credits Program,We Want You More,Letter
WILLINGBORO,NJ,08046,Juniors,Accelerated Credits Program,We Want You More,Letter
BELLMAWR,NJ,08031,Juniors,Accelerated Credits Program,We Want You More,Letter
BLACKWOOD,NJ,080122575,Juniors,Accelerated Credits Program,We Want You More,Letter
BELLMAWR,NJ,08031,Juniors,Accelerated Credits Program,We Want You More,Letter
MONROE TOWNSHIP,NJ,08831,Juniors,Accelerated Credits Program,We Want You More,Letter
BLACKWOOD,NJ,080124717,Juniors,Accelerated Credits Program,We Want You More,Letter
VOORHEES,NJ,08043,Juniors,Accelerated Credits Program,We Want You More,Letter
HAMMONTON,NJ,08037,Juniors,Accelerated Credits Program,We Want You More,Letter
PINE HILL,NJ,080216229,Juniors,Accelerated Credits Program,We Want You More,Letter
BENSALEM,PA,190204401,Juniors,Accelerated Credits Program,We Want You More,Letter
RUNNEMEDE,NJ,080782011,Juniors,Accelerated Credits Program,We Want You More,Letter
CLEMENTON,NJ,080213834,Juniors,Accelerated Credits Program,We Want You More,Letter
CHERRY HILL,NJ,08034,Juniors,Accelerated Credits Program,We Want You More,Letter
CHERRY HILL,NJ,080032202,Juniors,Accelerated Credits Program,We Want You More,Letter
GLOUCESTER CITY,NJ,08030,Juniors,Accelerated Credits Program,We Want You More,Letter
TRENTON,NJ,08629,Juniors,Accelerated Credits Program,We Want You More,Letter
REGION 10,,00000,Juniors,Accelerated Credits Program,We Want You More,Letter
CLIFFWOOD,NJ,077211353,Juniors,Accelerated Credits Program,We Want You More,Letter
CARNEYS POINT,NJ,080692834,Juniors,Accelerated Credits Program,We Want You More,Letter
CAMDEN,NJ,081053908,Juniors,Accelerated Credits Program,We Want You More,Letter
COLLINGSWOOD,NJ,081071726,Juniors,Accelerated Credits Program,We Want You More,Letter
PENNSAUKEN,NJ,081091117,Juniors,Accelerated Credits Program,We Want You More,Letter
SOMERDALE,NJ,080832018,Juniors,Accelerated Credits Program,We Want You More,Letter
SEWELL,NJ,08080,Juniors,Accelerated Credits Program,We Want You More,Letter
CLEMENTON,NJ,080216915,Juniors,Accelerated Credits Program,We Want You More,Letter
MEDFORD,NJ,080552411,Juniors,Accelerated Credits Program,We Want You More,Letter
NANNING,,,Juniors,Accelerated Credits Program,We Want You More,Letter
MOUNT LAUREL,NJ,08054,Juniors,Accelerated Credits Program,We Want You More,Letter
SICKLERVILLE,NJ,08081,Juniors,Accelerated Credits Program,We Want You More,Letter
PENNSAUKEN,NJ,08110,Juniors,Accelerated Credits Program,We Want You More,Letter
WILDWOOD,NJ,082604415,Juniors,Accelerated Credits Program,We Want You More,Letter
NEW CASTLE,DE,197208751,Juniors,Accelerated Credits Program,We Want You More,Letter
MERCHANTVILLE,NJ,081091856,Juniors,Accelerated Credits Program,We Want You More,Letter
PENNSAUKEN,NJ,08109,Juniors,Accelerated Credits Program,We Want You More,Letter
VOORHEES,NJ,08043,Juniors,Accelerated Credits Program,We Want You More,Letter
SICKLERVILLE,NJ,08081,Juniors,Accelerated Credits Program,We Want You More,Letter
OAKLYN,NJ,081071109,Juniors,Accelerated Credits Program,We Want You More,Letter
WILLINGBORO,NJ,080462303,Juniors,Accelerated Credits Program,We Want You More,Letter
DELRAN,NJ,080752854,Juniors,Accelerated Credits Program,We Want You More,Letter
PLEASANTVILLE,NJ,082321452,Juniors,Accelerated Credits Program,We Want You More,Letter
OAKLYN,NJ,08107,Juniors,Accelerated Credits Program,We Want You More,Letter
SICKLERVILLE,NJ,080811872,Juniors,Accelerated Credits Program,We Want You More,Letter
HACKETTSTOWN,NJ,078401836,Juniors,Accelerated Credits Program,We Want You More,Letter
STRATFORD,NJ,08084,Juniors,Accelerated Credits Program,We Want You More,Letter
LUMBERTON,NJ,080489531,Juniors,Accelerated Credits Program,We Want You More,Letter
MORGANVILLE,NJ,077512012,Juniors,Accelerated Credits Program,We Want You More,Letter
MORGANVILLE,NJ,077512012,Juniors,Accelerated Credits Program,We Want You More,Letter
TOMS RIVER,NJ,087531320,Juniors,Accelerated Credits Program,We Want You More,Letter
PISCATAWAY,NJ,08854,Juniors,Accelerated Credits Program,We Want You More,Letter
BORDENTOWN,NJ,085051162,Juniors,Accelerated Credits Program,We Want You More,Letter
GALLOWAY,NJ,082059765,Juniors,Accelerated Credits Program,We Want You More,Letter
CHERRY HILL,NJ,080033514,Juniors,Accelerated Credits Program,We Want You More,Letter
MARLTON,NJ,08053,Juniors,Accelerated Credits Program,We Want You More,Letter
LINDENWOLD,NJ,080211319,Juniors,Accelerated Credits Program,We Want You More,Letter
MAGNOLIA,NJ,080491051,Juniors,Accelerated Credits Program,We Want You More,Letter
PITMAN,NJ,080711048,Juniors,Accelerated Credits Program,We Want You More,Letter
PITMAN,NJ,08071,Juniors,Accelerated Credits Program,We Want You More,Letter
WOODBURY HTS,NJ,08097,Juniors,Accelerated Credits Program,We Want You More,Letter
HADDON TOWNSHIP,NJ,08107,Juniors,Accelerated Credits Program,We Want You More,Letter
WEST BERLIN,NJ,080919177,Juniors,Accelerated Credits Program,We Want You More,Letter
WEST DEPTFORD,NJ,080931940,Juniors,Accelerated Credits Program,We Want You More,Letter
CLARKSBORO,NJ,08020,Juniors,Accelerated Credits Program,We Want You More,Letter
BRIGANTINE,NJ,08203,Juniors,Accelerated Credits Program,We Want You More,Letter
KEANSBURG,NJ,077341827,Juniors,Accelerated Credits Program,We Want You More,Letter
BELLMAWR,NJ,080311723,Juniors,Accelerated Credits Program,We Want You More,Letter
VOORHEES,NJ,08043,Juniors,Accelerated Credits Program,We Want You More,Letter
BRIDGETON,NJ,083022718,Juniors,Accelerated Credits Program,We Want You More,Letter
HADDONFIELD,NJ,08033,Juniors,Accelerated Credits Program,We Want You More,Letter
HAMILTON,NJ,08620,Juniors,Accelerated Credits Program,We Want You More,Letter
BURLINGTON,NJ,080169713,Juniors,Accelerated Credits Program,We Want You More,Letter
MONTOE,NJ,08831,Juniors,Accelerated Credits Program,We Want You More,Letter
ROBBINSVILLE,NJ,086913097,Juniors,Accelerated Credits Program,We Want You More,Letter
PENNSAUKEN,NJ,081091738,Juniors,Accelerated Credits Program,We Want You More,Letter
BELFORD,NJ,077181265,Juniors,Accelerated Credits Program,We Want You More,Letter
CINNAMINSON,NJ,080771925,Juniors,Accelerated Credits Program,We Want You More,Letter
JERSEY CITY,NJ,073043715,Juniors,Accelerated Credits Program,We Want You More,Letter
DEPTFORD,NJ,08096,Juniors,Accelerated Credits Program,We Want You More,Letter
CHERRY HILL,NJ,080343714,Juniors,Accelerated Credits Program,We Want You More,Letter
CHERRY HILL,NJ,080023009,Juniors,Accelerated Credits Program,We Want You More,Letter
PENNSAUKEN,NJ,08109,Juniors,Accelerated Credits Program,We Want You More,Letter
MEDFORD,NJ,08055,Juniors,Accelerated Credits Program,We Want You More,Letter
ROSELLE,NJ,07203,Juniors,Accelerated Credits Program,We Want You More,Letter
CLEMENTON,NJ,080214220,Juniors,Accelerated Credits Program,We Want You More,Letter
MARLTON,NJ,080533832,Juniors,Accelerated Credits Program,We Want You More,Letter
WILLINGBORO,NJ,080463005,Juniors,Accelerated Credits Program,We Want You More,Letter
CHERRY HILL,NJ,080031720,Juniors,Accelerated Credits Program,We Want You More,Letter
WEST DEPTFORD,NJ,08096,Juniors,Accelerated Credits Program,We Want You More,Letter
WOODBURY,NJ,080966416,Juniors,Accelerated Credits Program,We Want You More,Letter
MORGANVILLE,NJ,077511746,Juniors,Accelerated Credits Program,We Want You More,Letter
CHERRY HILL,NJ,08034,Juniors,Accelerated Credits Program,We Want You More,Letter
CHERRY HILL,NJ,08002,Juniors,Accelerated Credits Program,We Want You More,Letter
CHERRY HILL,NJ,080033848,Juniors,Accelerated Credits Program,We Want You More,Letter
OAKLYN,NJ,08107,Juniors,Accelerated Credits Program,We Want You More,Letter
MONTCLAIR,NJ,07042,Juniors,Accelerated Credits Program,We Want You More,Letter
TRENTON,NJ,086185836,Juniors,Accelerated Credits Program,We Want You More,Letter
CAMDEN,NJ,081041949,Juniors,Accelerated Credits Program,We Want You More,Letter
NORTHFIELD,NJ,08225,Juniors,Accelerated Credits Program,We Want You More,Letter
EDISON,NJ,08837,Juniors,Accelerated Credits Program,We Want You More,Letter
VOORHEES,NJ,080431211,Juniors,Accelerated Credits Program,We Want You More,Letter
CAMDEN,NJ,081021801,Juniors,Accelerated Credits Program,We Want You More,Letter
LINDENWOLD,NJ,08021,Juniors,Accelerated Credits Program,We Want You More,Letter
WEST BERLIN,NJ,080911248,Juniors,Accelerated Credits Program,We Want You More,Letter
BARRINGTON,NJ,08007,Juniors,Accelerated Credits Program,We Want You More,Letter
PENNSAUKEN,NJ,08109,Juniors,Accelerated Credits Program,We Want You More,Letter
VOORHEES,NJ,080431039,Juniors,Accelerated Credits Program,We Want You More,Letter
WEST DEPTFORD,NJ,08096,Juniors,Accelerated Credits Program,We Want You More,Letter
GLOUCESTER CITY,NJ,080301703,Juniors,Accelerated Credits Program,We Want You More,Letter
CAMDEN,NJ,081052414,Juniors,Accelerated Credits Program,We Want You More,Letter
WILLINGBORO,NJ,080463171,Juniors,Accelerated Credits Program,We Want You More,Letter
EGG HARBOR TOWNSHIP,NJ,08234,Juniors,Accelerated Credits Program,We Want You More,Letter
LINDENWOLD,NJ,080215911,Juniors,Accelerated Credits Program,We Want You More,Letter
HAMMONTON,NJ,08037,Juniors,Accelerated Credits Program,We Want You More,Letter
MATAWAN,NJ,07747,Juniors,Accelerated Credits Program,We Want You More,Letter
PENNSAUKEN,NJ,08109,Juniors,Accelerated Credits Program,We Want You More,Letter
PENNSAUKEN,NJ,081101906,Juniors,Accelerated Credits Program,We Want You More,Letter
VOORHEES,NJ,08043,Juniors,Accelerated Credits Program,We Want You More,Letter
PENNSAUKEN,NJ,08109,Juniors,Accelerated Credits Program,We Want You More,Letter
MERCHANTVILLE,NJ,08109,Juniors,Accelerated Credits Program,We Want You More,Letter
MONTCLAIR,NJ,07042,Juniors,Accelerated Credits Program,We Want You More,Letter
PENNSAUKEN,NJ,08110,Juniors,Accelerated Credits Program,We Want You More,Letter
SOUTH AMBOY,NJ,08879,Juniors,Accelerated Credits Program,We Want You More,Letter
WEST WINDSOR TOWNSHIP,NJ,08550,Juniors,Accelerated Credits Program,We Want You More,Letter
GLASSBORO,NJ,08028,Juniors,Accelerated Credits Program,We Want You More,Letter
AUDUBON,NJ,081061332,Juniors,Accelerated Credits Program,We Want You More,Letter
HADDONFIELD,NJ,080331014,Juniors,Accelerated Credits Program,We Want You More,Letter
BLACKWOOD,NJ,080122420,Juniors,Accelerated Credits Program,We Want You More,Letter
CHERRY HILL,NJ,080031425,Juniors,Accelerated Credits Program,We Want You More,Letter
BRANCHBURG,NJ,088763761,Juniors,Accelerated Credits Program,We Want You More,Letter
CAMDEN,NJ,081032932,Juniors,Accelerated Credits Program,We Want You More,Letter
IRVINGTON,NJ,07111,Juniors,Accelerated Credits Program,We Want You More,Letter
CAMDEN,NJ,081041744,Juniors,Accelerated Credits Program,We Want You More,Letter
RIVERTON,NJ,08077,Juniors,Accelerated Credits Program,We Want You More,Letter
SICKLERVILLE,NJ,080812401,Juniors,Accelerated Credits Program,We Want You More,Letter
CAMDEN,NJ,081053018,Juniors,Accelerated Credits Program,We Want You More,Letter
PHILADELPHIA,PA,19121,Juniors,Accelerated Credits Program,We Want You More,Letter
MARGATE CITY,NJ,084021042,Juniors,Accelerated Credits Program,We Want You More,Letter
HADDONFIELD,NJ,080333049,Juniors,Accelerated Credits Program,We Want You More,Letter
PARLIN,NJ,08859,Juniors,Accelerated Credits Program,We Want You More,Letter
TRENTON,NJ,086291723,Juniors,Accelerated Credits Program,We Want You More,Letter
ERIAL,NJ,080812210,Juniors,Accelerated Credits Program,We Want You More,Letter
MORGANVILLE,NJ,077512018,Juniors,Accelerated Credits Program,We Want You More,Letter
EDISON,NJ,08817,Juniors,Accelerated Credits Program,We Want You More,Letter
BLACKWOOD,NJ,08012,Juniors,Accelerated Credits Program,We Want You More,Letter
LITTLE EGG HARBOR TWP,NJ,080871615,Juniors,Accelerated Credits Program,We Want You More,Letter
MOUNT ROYAL,NJ,08061,Juniors,Accelerated Credits Program,We Want You More,Letter
MIDDLETOWN,NJ,077481921,Juniors,Accelerated Credits Program,We Want You More,Letter
SOMERDALE,NJ,080831643,Juniors,Accelerated Credits Program,We Want You More,Letter
SICKLERVILLE,NJ,08081,Juniors,Accelerated Credits Program,We Want You More,Letter
VERONA,NJ,070441715,Juniors,Accelerated Credits Program,We Want You More,Letter
RED BANK,NJ,077016236,Juniors,Accelerated Credits Program,We Want You More,Letter
SAYREVILLE,NJ,088722710,Juniors,Accelerated Credits Program,We Want You More,Letter
SICKLERVILLE,NJ,080813400,Juniors,Accelerated Credits Program,We Want You More,Letter
CAPE MAY COURT HOUSE,NJ,082102046,Juniors,Accelerated Credits Program,We Want You More,Letter
TRENTON,NJ,08638,Juniors,Accelerated Credits Program,We Want You More,Letter
MOUNT LAUREL,NJ,080543254,Juniors,Accelerated Credits Program,We Want You More,Letter
HOWELL,NJ,07731,Juniors,Accelerated Credits Program,We Want You More,Letter
PENNSAUKEN,NJ,08110,Juniors,Accelerated Credits Program,We Want You More,Letter
CHERRY HILL,NJ,08002,Juniors,Accelerated Credits Program,We Want You More,Letter
PENNSAUKEN,NJ,081091749,Juniors,Accelerated Credits Program,We Want You More,Letter
CHERRY HILL,NJ,08034,Juniors,Accelerated Credits Program,We Want You More,Letter
PENNSAUKEN,NJ,081093721,Juniors,Accelerated Credits Program,We Want You More,Letter
PENNSAUKEN,NJ,081102010,Juniors,Accelerated Credits Program,We Want You More,Letter
BLACKWOOD,NJ,08012,Juniors,Accelerated Credits Program,We Want You More,Letter
SEWELL,NJ,08080,Juniors,Accelerated Credits Program,We Want You More,Letter
BROWNS MILLS,NJ,080155444,Juniors,Accelerated Credits Program,We Want You More,Letter
STRATFORD,NJ,080841408,Juniors,Accelerated Credits Program,We Want You More,Letter
PENNSAUKEN,NJ,081102215,Juniors,Accelerated Credits Program,We Want You More,Letter
NORTH CAPE MAY,NJ,08204,Juniors,Accelerated Credits Program,We Want You More,Letter
CAMDEN,NJ,081021818,Juniors,Accelerated Credits Program,We Want You More,Letter
VOORHEES,NJ,080432004,Juniors,Accelerated Credits Program,We Want You More,Letter
CHERRY HILL,NJ,08003,Juniors,Accelerated Credits Program,We Want You More,Letter
WEST ORANGE,NJ,07052,Juniors,Accelerated Credits Program,We Want You More,Letter
CAMDEN,NJ,08102,Juniors,Accelerated Credits Program,We Want You More,Letter
PENNSAUKEN,NJ,081103104,Juniors,Accelerated Credits Program,We Want You More,Letter
PLEASANTVILLE,NJ,082321222,Juniors,Accelerated Credits Program,We Want You More,Letter
FARMINGDALE,NJ,077271419,Juniors,Accelerated Credits Program,We Want You More,Letter
MANASQUAN,NJ,087363554,Juniors,Accelerated Credits Program,We Want You More,Letter
MIDDLETOWN,NJ,077481571,Juniors,Accelerated Credits Program,We Want You More,Letter
MIDDLETOWN,NJ,077484237,Juniors,Accelerated Credits Program,We Want You More,Letter
EASTAMPTN TOWNSHIP,NJ,08060,Juniors,Accelerated Credits Program,We Want You More,Letter
PHILADELPHIA,PA,19107,Juniors,Accelerated Credits Program,We Want You More,Letter
MT HOLLY TOWNSHIP,NJ,08060,Juniors,Accelerated Credits Program,We Want You More,Letter
BURLINGTON,NJ,08016,Juniors,Accelerated Credits Program,We Want You More,Letter
SALEM,NJ,08079,Juniors,Accelerated Credits Program,We Want You More,Letter
OCEAN VIEW,NJ,082301604,Juniors,Accelerated Credits Program,We Want You More,Letter
NEWARK,NJ,07112,Juniors,Accelerated Credits Program,We Want You More,Letter
GLENDORA,NJ,080291030,Juniors,Accelerated Credits Program,We Want You More,Letter
WILDWOOD,NJ,082601474,Juniors,Accelerated Credits Program,We Want You More,Letter
FREEHOLD,NJ,077282344,Juniors,Accelerated Credits Program,We Want You More,Letter
PENNSAUKEN TOWNSHIP,NJ,08109,Juniors,Accelerated Credits Program,We Want You More,Letter
PARLIN,NJ,088591806,Juniors,Accelerated Credits Program,We Want You More,Letter
AUDUBON,NJ,08106,Juniors,Accelerated Credits Program,We Want You More,Letter
CINNAMINSON,NJ,080772131,Juniors,Accelerated Credits Program,We Want You More,Letter
PENNSAUKEN,NJ,081101734,Juniors,Accelerated Credits Program,We Want You More,Letter
HIGHLAND PARK,NJ,089041939,Juniors,Accelerated Credits Program,We Want You More,Letter
MAYS LANDING,NJ,083302910,Juniors,Accelerated Credits Program,We Want You More,Letter
BRIGANTINE,NJ,082031091,Juniors,Accelerated Credits Program,We Want You More,Letter
CAMDEN,NJ,08104,Juniors,Accelerated Credits Program,We Want You More,Letter
FLORENCE,NJ,08518,Juniors,Accelerated Credits Program,We Want You More,Letter
SICKLERVILLE,NJ,080811249,Juniors,Accelerated Credits Program,We Want You More,Letter
WILLINGBORO,NJ,080461901,Juniors,Accelerated Credits Program,We Want You More,Letter
HIGH BRIDGE,NJ,08829,Juniors,Accelerated Credits Program,We Want You More,Letter
CHERRY HILL,NJ,080021811,Juniors,Accelerated Credits Program,We Want You More,Letter
MARLTON,NJ,080535621,Juniors,Accelerated Credits Program,We Want You More,Letter
MILLVILLE,NJ,083329795,Juniors,Accelerated Credits Program,We Want You More,Letter
SUMMERVILLE,SC,294857341,Juniors,Accelerated Credits Program,We Want You More,Letter
MANALAPAN,NJ,077263218,Juniors,Accelerated Credits Program,We Want You More,Letter
WOODBURY,NJ,08096,Juniors,Accelerated Credits Program,We Want You More,Letter
EDISON,NJ,08817,Juniors,Accelerated Credits Program,We Want You More,Letter
OAKLYN,NJ,08107,Juniors,Accelerated Credits Program,We Want You More,Letter
WOODLYNNE,NJ,081072246,Juniors,Accelerated Credits Program,We Want You More,Letter
ROCKAWAY,NJ,07866,Juniors,Accelerated Credits Program,We Want You More,Letter
CLAYTON,NJ,083121261,Juniors,Accelerated Credits Program,We Want You More,Letter
BELLMAWR,NJ,080312345,Juniors,Accelerated Credits Program,We Want You More,Letter
CAMDEN,NJ,081054332,Juniors,Accelerated Credits Program,We Want You More,Letter
FRANKLINVILLE,NJ,08322,Juniors,Accelerated Credits Program,We Want You More,Letter
PITMAN,NJ,080711845,Juniors,Accelerated Credits Program,We Want You More,Letter
PENNSAUKEN,NJ,081101933,Juniors,Accelerated Credits Program,We Want You More,Letter
CAMDEN,NJ,08103,Juniors,Accelerated Credits Program,We Want You More,Letter
BERLIN,NJ,08009,Juniors,Accelerated Credits Program,We Want You More,Letter
HAMMONTON,NJ,08037,Juniors,Accelerated Credits Program,We Want You More,Letter
HOWELL,NJ,077311437,Juniors,Accelerated Credits Program,We Want You More,Letter
BLACKWOOD,NJ,080127802,Juniors,Accelerated Credits Program,We Want You More,Letter
OCEAN,NJ,077128407,Juniors,Accelerated Credits Program,We Want You More,Letter
OAKLYN,NJ,081072220,Juniors,Accelerated Credits Program,We Want You More,Letter
JACKSON,NJ,085273170,Juniors,Accelerated Credits Program,We Want You More,Letter
CLIFFWOOD,NJ,077211005,Juniors,Accelerated Credits Program,We Want You More,Letter
COLLINGSWOOD,NJ,081072050,Juniors,Accelerated Credits Program,We Want You More,Letter
CLAYTON,NJ,083121964,Juniors,Accelerated Credits Program,We Want You More,Letter
CAMDEN,NJ,081042712,Juniors,Accelerated Credits Program,We Want You More,Letter
WILLIAMSTOWN,NJ,08094,Juniors,Accelerated Credits Program,We Want You More,Letter
VOORHEES,NJ,080434736,Juniors,Accelerated Credits Program,We Want You More,Letter
BLACKWOOD,NJ,080125518,Juniors,Accelerated Credits Program,We Want You More,Letter
LAWNSIDE,NJ,080452004,Juniors,Accelerated Credits Program,We Want You More,Letter
FREEHOLD,NJ,077283738,Juniors,Accelerated Credits Program,We Want You More,Letter
MULLICA HILL,NJ,08062,Juniors,Accelerated Credits Program,We Want You More,Letter
MOUNT LAUREL,NJ,080545991,Juniors,Accelerated Credits Program,We Want You More,Letter
MARLTON,NJ,08053,Juniors,Accelerated Credits Program,We Want You More,Letter
GLOUCESTER,NJ,08030,Juniors,Accelerated Credits Program,We Want You More,Letter
CHERRY HILL,NJ,080343234,Juniors,Accelerated Credits Program,We Want You More,Letter
FREEHOLD,NJ,077282835,Juniors,Accelerated Credits Program,We Want You More,Letter
FAIR HAVEN,NJ,077043252,Juniors,Accelerated Credits Program,We Want You More,Letter
WESTVILLE,NJ,080933532,Juniors,Accelerated Credits Program,We Want You More,Letter
SOUTH BRUNSWICK TOWNSHIP,NJ,08824,Juniors,Accelerated Credits Program,We Want You More,Letter
WENONAH,NJ,080901517,Juniors,Accelerated Credits Program,We Want You More,Letter
MERCHANTVILLE,NJ,081092922,Juniors,Accelerated Credits Program,We Want You More,Letter
BLACKWOOD,NJ,08012,Juniors,Accelerated Credits Program,We Want You More,Letter
GLOUCESTER TOWNSHIP,NJ,08081,Juniors,Accelerated Credits Program,We Want You More,Letter
SICKLERVILLE,NJ,08081,Juniors,Accelerated Credits Program,We Want You More,Letter
OAKLYN,NJ,08107,Juniors,Accelerated Credits Program,We Want You More,Letter
BELLMAWR,NJ,080312643,Juniors,Accelerated Credits Program,We Want You More,Letter
PERTH AMBOY,NJ,088611736,Juniors,Accelerated Credits Program,We Want You More,Letter
PENNSAUKEN,NJ,08110,Juniors,Accelerated Credits Program,We Want You More,Letter
PENNSAUKEN,NJ,081101731,Juniors,Accelerated Credits Program,We Want You More,Letter
PINE HILL,NJ,08021,Juniors,Accelerated Credits Program,We Want You More,Letter
PENNSAUKEN,NJ,081101828,Juniors,Accelerated Credits Program,We Want You More,Letter
GLOUCESTER CITY,NJ,080302311,Juniors,Accelerated Credits Program,We Want You More,Letter
CAMDEN,NJ,08102,Juniors,Accelerated Credits Program,We Want You More,Letter
LINDENWOLD,NJ,08021,Juniors,Accelerated Credits Program,We Want You More,Letter
MARLTON,NJ,080533615,Juniors,Accelerated Credits Program,We Want You More,Letter
BLACKWOOD,NJ,080124101,Juniors,Accelerated Credits Program,We Want You More,Letter
CAMDEN,NJ,081021005,Juniors,Accelerated Credits Program,We Want You More,Letter
WEST DEPFORD,NJ,08096,Juniors,Accelerated Credits Program,We Want You More,Letter
CARNEYS POINT,NJ,080692431,Juniors,Accelerated Credits Program,We Want You More,Letter
GIBBSBORO,NJ,08026,Juniors,Accelerated Credits Program,We Want You More,Letter
CHERRY HILL,NJ,08002,Juniors,Accelerated Credits Program,We Want You More,Letter
VINELAND,NJ,083603319,Juniors,Accelerated Credits Program,We Want You More,Letter
PENNSAUKEN TOWNSHIP,NJ,08109,Juniors,Accelerated Credits Program,We Want You More,Letter
CAMDEN,NJ,081051402,Juniors,Accelerated Credits Program,We Want You More,Letter
LINDENWOLD,NJ,08021,Juniors,Accelerated Credits Program,We Want You More,Letter
CAMDEN,NJ,08105,Juniors,Accelerated Credits Program,We Want You More,Letter
VINELAND,NJ,083602644,Juniors,Accelerated Credits Program,We Want You More,Letter
RIO GRANDE,NJ,082421902,Juniors,Accelerated Credits Program,We Want You More,Letter
LOGAN TOWNSHIP,NJ,08085,Juniors,Accelerated Credits Program,We Want You More,Letter
POMPTON LAKES,NJ,07442,Juniors,Accelerated Credits Program,We Want You More,Letter
PLEASANTVILLE,NJ,08232,Juniors,Accelerated Credits Program,We Want You More,Letter
WILLIAMSTOWN,NJ,08094,Juniors,Accelerated Credits Program,We Want You More,Letter
CAMDEN,NJ,081032813,Juniors,Accelerated Credits Program,We Want You More,Letter
WILLIAMSTOWN,NJ,080942325,Juniors,Accelerated Credits Program,We Want You More,Letter
JACKSON,NJ,085275331,Juniors,Accelerated Credits Program,We Want You More,Letter
CHERRY HILL,NJ,080022037,Juniors,Accelerated Credits Program,We Want You More,Letter
ATTLEBORO,MA,02703,Juniors,Accelerated Credits Program,We Want You More,Letter
SICKLERVILLE,NJ,08081,Juniors,Accelerated Credits Program,We Want You More,Letter
PENNSAUKEN,NJ,081106440,Juniors,Accelerated Credits Program,We Want You More,Letter
SICKLERVILLE,NJ,08081,Juniors,Accelerated Credits Program,We Want You More,Letter
SEWELL,NJ,080801951,Juniors,Accelerated Credits Program,We Want You More,Letter
SICKERVILLE,NJ,08081,Juniors,Accelerated Credits Program,We Want You More,Letter
MARLBORO,NJ,077461051,Juniors,Accelerated Credits Program,We Want You More,Letter
EWING,NJ,086283333,Juniors,Accelerated Credits Program,We Want You More,Letter
RAHWAY,NJ,07065,Juniors,Accelerated Credits Program,We Want You More,Letter
CHERRY HILL,NJ,080031720,Juniors,Accelerated Credits Program,We Want You More,Letter
CAMDEN,NJ,081032705,Juniors,Accelerated Credits Program,We Want You More,Letter
PENNSAUKEN,NJ,08110,Juniors,Accelerated Credits Program,We Want You More,Letter
JACKSON,NJ,085274646,Juniors,Accelerated Credits Program,We Want You More,Letter
VOORHEES,NJ,080432229,Juniors,Accelerated Credits Program,We Want You More,Letter
CAMDEN,NJ,08104,Juniors,Accelerated Credits Program,We Want You More,Letter
CHERRY HILL,NJ,080033432,Juniors,Accelerated Credits Program,We Want You More,Letter
WESTAMPTON,NJ,,Juniors,Accelerated Credits Program,We Want You More,Letter
CAMDEN,NJ,08103,Juniors,Accelerated Credits Program,We Want You More,Letter
DELRAN,NJ,080751709,Juniors,Accelerated Credits Program,We Want You More,Letter
BLACKWOOD,NJ,08012,Juniors,Accelerated Credits Program,We Want You More,Letter
ATCO,NJ,080042034,Juniors,Accelerated Credits Program,We Want You More,Letter
PENNSVILLE,NJ,080703641,Juniors,Accelerated Credits Program,We Want You More,Letter
BURLINGTON,MA,01803,Juniors,Accelerated Credits Program,We Want You More,Letter
BEACHWOOD,NJ,08722,Juniors,Accelerated Credits Program,We Want You More,Letter
VILLAS,NJ,082511344,Juniors,Accelerated Credits Program,We Want You More,Letter
WILLINGBORO,NJ,08046,Juniors,Accelerated Credits Program,We Want You More,Letter
TEANECK,NJ,07666,Juniors,Accelerated Credits Program,We Want You More,Letter
EGG HARBOR CITY,NJ,082154233,Juniors,Accelerated Credits Program,We Want You More,Letter
EGG HARBOR TOWNSHIP,NJ,082349531,Juniors,Accelerated Credits Program,We Want You More,Letter
BLACKWOOD,NJ,08012,Juniors,Accelerated Credits Program,We Want You More,Letter
BELLMAWR,NJ,080311508,Juniors,Accelerated Credits Program,We Want You More,Letter
BURLINGTON,NJ,08016,Juniors,Accelerated Credits Program,We Want You More,Letter
CRANFORD,NJ,070162144,Juniors,Accelerated Credits Program,We Want You More,Letter
PINE HILL,NJ,08021,Juniors,Accelerated Credits Program,We Want You More,Letter
PLEASANTVILLE,NJ,082323506,Juniors,Accelerated Credits Program,We Want You More,Letter
MERCHANTVILLE,NJ,081095108,Juniors,Accelerated Credits Program,We Want You More,Letter
SICKLERVILLE,NJ,080812511,Juniors,Accelerated Credits Program,We Want You More,Letter
CHERRY HILL,NJ,080033627,Juniors,Accelerated Credits Program,We Want You More,Letter
BLACKWOOD,NJ,08012,Juniors,Accelerated Credits Program,We Want You More,Letter
MOUNT LAUREL,NJ,08054,Juniors,Accelerated Credits Program,We Want You More,Letter
MERCHANTVILLE,NJ,08109,Juniors,Accelerated Credits Program,We Want You More,Letter
SEWELL,NJ,08080,Juniors,Accelerated Credits Program,We Want You More,Letter
CAMDEN,NJ,081054053,Juniors,Accelerated Credits Program,We Want You More,Letter
VOORHEES,NJ,080433303,Juniors,Accelerated Credits Program,We Want You More,Letter
PENNSAUKEN,NJ,081106319,Juniors,Accelerated Credits Program,We Want You More,Letter
CAMDEN,NJ,081021810,Juniors,Accelerated Credits Program,We Want You More,Letter
ROSELLE,NJ,07203,Juniors,Accelerated Credits Program,We Want You More,Letter
VOORHEES,NJ,080434645,Juniors,Accelerated Credits Program,We Want You More,Letter
DAYTON,NJ,088101592,Juniors,Accelerated Credits Program,We Want You More,Letter
EGG HARBOR TOWNSHIP,NJ,08234,Juniors,Accelerated Credits Program,We Want You More,Letter
GALLOWAY,NJ,08205,Juniors,Accelerated Credits Program,We Want You More,Letter
SEWELL,NJ,08080,Juniors,Accelerated Credits Program,We Want You More,Letter
STEWARTSVILLE,NJ,08886,Juniors,Accelerated Credits Program,We Want You More,Letter
CLEMENTON,NJ,08021,Juniors,Accelerated Credits Program,We Want You More,Letter
MAYS LANDING,NJ,083302274,Juniors,Accelerated Credits Program,We Want You More,Letter
CINNAMINSON,NJ,080773866,Juniors,Accelerated Credits Program,We Want You More,Letter
PARLIN,NJ,08859,Juniors,Accelerated Credits Program,We Want You More,Letter
PENNSAUKEN,NJ,08109,Juniors,Accelerated Credits Program,We Want You More,Letter
VINELAND,NJ,08360,Juniors,Accelerated Credits Program,We Want You More,Letter
AUDUBON,NJ,081061103,Juniors,Accelerated Credits Program,We Want You More,Letter
CHERRY HILL,NJ,08034,Juniors,Accelerated Credits Program,We Want You More,Letter
CHERRY HILL,NJ,080341725,Juniors,Accelerated Credits Program,We Want You More,Letter
CHERRY HILL,NJ,080342804,Juniors,Accelerated Credits Program,We Want You More,Letter
CHERRY HILL,NJ,08003,Juniors,Accelerated Credits Program,We Want You More,Letter
BERLIN,NJ,080099744,Juniors,Accelerated Credits Program,We Want You More,Letter
WESTMONT,NJ,08108,Juniors,Accelerated Credits Program,We Want You More,Letter
LINDENWOLD,NJ,08021,Juniors,Accelerated Credits Program,We Want You More,Letter
HAMMONTON,NJ,080371169,Juniors,Accelerated Credits Program,We Want You More,Letter
MAYS LANDING,NJ,08330,Juniors,Accelerated Credits Program,We Want You More,Letter
CHERRY HILL,NJ,080033638,Juniors,Accelerated Credits Program,We Want You More,Letter
PENNSAUKEN,NJ,08109,Juniors,Accelerated Credits Program,We Want You More,Letter
CAMDEN,NJ,08102,Juniors,Accelerated Credits Program,We Want You More,Letter
SWEDESBORO,NJ,08085,Juniors,Accelerated Credits Program,We Want You More,Letter
WEST DEPTFORD,NJ,08051,Juniors,Accelerated Credits Program,We Want You More,Letter
RIVERTON,NJ,080771709,Juniors,Accelerated Credits Program,We Want You More,Letter
CAMDEN,NJ,081021821,Juniors,Accelerated Credits Program,We Want You More,Letter
CAMDEN,NJ,08104,Juniors,Accelerated Credits Program,We Want You More,Letter
PAULSBORO,NJ,08066,Juniors,Accelerated Credits Program,We Want You More,Letter
BURLINGTON,NJ,08016,Juniors,Accelerated Credits Program,We Want You More,Letter
WILLIAMSTOWN,NJ,080941231,Juniors,Accelerated Credits Program,We Want You More,Letter
CHERRY HILL,NJ,080343650,Juniors,Accelerated Credits Program,We Want You More,Letter
RUNNEMEDE,NJ,080781206,Juniors,Accelerated Credits Program,We Want You More,Letter
HADDON TOWNSHIP,NJ,081081706,Juniors,Accelerated Credits Program,We Want You More,Letter
MAPLE SHADE,NJ,08052,Juniors,Accelerated Credits Program,We Want You More,Letter
GLOUCESTER CITY,NJ,080301615,Juniors,Accelerated Credits Program,We Want You More,Letter
MEDFORD,NJ,080553806,Juniors,Accelerated Credits Program,We Want You More,Letter
CAMDEN,NJ,08105,Juniors,Accelerated Credits Program,We Want You More,Letter
MAYVILLE,NY,147571010,Juniors,Accelerated Credits Program,We Want You More,Letter
ATCO,NJ,080041407,Juniors,Accelerated Credits Program,We Want You More,Letter
CAPE MAY COURT HOUSE,NJ,082101222,Juniors,Accelerated Credits Program,We Want You More,Letter
CAMDEN,NJ,081041356,Juniors,Accelerated Credits Program,We Want You More,Letter
MANTUA,NJ,08051,Juniors,Accelerated Credits Program,We Want You More,Letter
WOOLWICH TOWNSH,NJ,08085,Juniors,Accelerated Credits Program,We Want You More,Letter
WILLINGBORO,NJ,080462750,Juniors,Accelerated Credits Program,We Want You More,Letter
BLACKWOOD,NJ,080124433,Juniors,Accelerated Credits Program,We Want You More,Letter
PARLIN,NJ,088592125,Juniors,Accelerated Credits Program,We Want You More,Letter
CHERRYHILL,NJ,08003,Juniors,Accelerated Credits Program,We Want You More,Letter
HAMILTON,NJ,086193540,Juniors,Accelerated Credits Program,We Want You More,Letter
HADDONFIELD,NJ,080333933,Juniors,Accelerated Credits Program,We Want You More,Letter
MOUNT LAUREL,NJ,080542420,Juniors,Accelerated Credits Program,We Want You More,Letter
ABSECON,NJ,08201,Juniors,Accelerated Credits Program,We Want You More,Letter
TURNERSVILLE,NJ,08012,Juniors,Accelerated Credits Program,We Want You More,Letter
ROSELLE,NJ,07203,Juniors,Accelerated Credits Program,We Want You More,Letter
BROWNS MILLS,NJ,080153140,Juniors,Accelerated Credits Program,We Want You More,Letter
WILLINGBORO,NJ,080463621,Juniors,Accelerated Credits Program,We Want You More,Letter
MILFORD,PA,18337,Juniors,Accelerated Credits Program,We Want You More,Letter
TOMS RIVER,NJ,08753,Juniors,Accelerated Credits Program,We Want You More,Letter
