CITY,STATE,ZIP,Latitude,Longitude,Campaign
SICKLERVILLE,NJ,080811628,39.7858,-74.9889,We Want You More
TOMS RIVER,NJ,087536792,39.954639,-74.198456,We Want You More
CHERRY HILL,NJ,080023028,39.9384,-75.0212,We Want You More
BERLIN,NJ,080099682,39.813904,-74.918632,We Want You More
MARLTON,NJ,08053,39.89582,-74.940255,We Want You More
HAMMONTON,NJ,080378420,39.589451,-74.79756,We Want You More
RIVERSIDE,NJ,080753918,40.016622,-74.958571,We Want You More
VINELAND,NJ,083604746,39.4852,-75.024981,We Want You More
CAMDEN,NJ,081032920,39.947992,-75.126154,We Want You More
HI NELLA,NJ,080832648,39.878371,-74.921073,We Want You More
HAGERSTOWN,MD,217401573,39.641668,-77.727098,We Want You More
CAMDEN,NJ,081041822,39.925027,-75.113577,We Want You More
SOMERSET,NJ,088734834,40.502147,-74.501706,We Want You More
WILLINGBORO,NJ,08046,40.029735,-74.883789,We Want You More
WALLINGFORD,PA,190867114,39.22517,-75.52384,We Want You More
WILLINGBORO,NJ,080463168,40.029735,-74.883789,We Want You More
RIDGEFIELD PARK,NJ,076601080,40.848045,-74.012261,We Want You More
CHICO,CA,959730242,39.636204,-121.719074,We Want You More
PENNSAUKEN,NJ,081103747,39.935267,-75.051823,We Want You More
MEDFORD,NJ,080559304,39.89575,-74.888058,We Want You More
BLACKWOOD,NJ,080124833,39.832803,-75.030849,We Want You More
PLAINFIELD,NJ,070602641,40.60408,-74.424492,We Want You More
CHERRY HILL,NJ,08034,39.934555,-75.013203,We Want You More
MAPLE SHADE,NJ,080521864,39.948211,-75.035646,We Want You More
WILLINGBORO,NJ,080463707,40.029735,-74.883789,We Want You More
MAPLE SHADE,NJ,08052,39.948115,-75.030413,We Want You More
PENNSAUKEN,NJ,081103519,39.93471,-75.062679,We Want You More
CAMDEN,NJ,08105,39.93471,-75.062679,We Want You More
PENNSAUKEN,NJ,081091728,39.963198,-75.074154,We Want You More
JACKSON,NJ,085272416,40.137776,-74.362832,We Want You More
WOODBRIDGE,NJ,07095,40.55358,-74.28743,We Want You More
PHILA,PA,191531536,39.886917,-75.248495,We Want You More
TOLLESBORO,KY,411898522,38.571751,-83.578872,We Want You More
BRIDGETON,NJ,083023841,39.426241,-75.236241,We Want You More
CHERRY HILL,NJ,080021841,39.934611,-74.966666,We Want You More
MONROE TOWNSHIP,NJ,08831,40.284156,-74.416166,We Want You More
MOUNT LAUREL,NJ,080544501,39.934329,-74.918848,We Want You More
EDISON,NJ,088372921,40.55319,-74.36065,We Want You More
SHAMONG,NJ,080889686,39.840267,-74.671888,We Want You More
DELRAN,NJ,080751349,40.026255,-74.939829,We Want You More
CAMDEN,NJ,08102,39.944193,-75.118589,We Want You More
CHERRY HILL,NJ,080033942,39.935252,-74.974333,We Want You More
WOOLWICH TOWNSHIP,NJ,080854025,39.75303,-75.25834,We Want You More
CAMDEN,NJ,08105,39.949935,-75.12103,We Want You More
MOUNT LAUREL,NJ,080541323,39.943345,-74.935337,We Want You More
WILLIAMSTOWN,NJ,080946303,39.631433,-74.979538,We Want You More
EGG HARBOR TOWNSHIP,NJ,082345403,39.347027,-74.554234,We Want You More
COLLINGSWOOD,NJ,081083048,39.918217,-75.072119,We Want You More
PENNSAUKEN,NJ,081093511,39.926658,-74.995393,We Want You More
PENNSAUKEN,NJ,08110,39.953946,-75.003587,We Want You More
MUMBAI,,,19.081074,72.852848,We Want You More
WESTVILLE,NJ,080931144,39.919088,-75.084334,We Want You More
MUMBAI,,,19.203334,72.835139,We Want You More
PLEASANTVILLE,NJ,082323452,39.340163,-74.507012,We Want You More
MUMBAI,,,19.078302,72.873213,We Want You More
MUMBAI,,,19.116352,72.845173,We Want You More
NASHIK,,,19.974324,73.774369,We Want You More
CHERRY HILL,NJ,080021055,39.92954,-74.989865,We Want You More
THANE,,,19.197335,72.962969,We Want You More
GLOUCESTER CITY,NJ,080301620,39.894027,-75.107716,We Want You More
MEMPHIS,TN,381065430,35.141137,-90.017205,We Want You More
MUMBAI,,,19.075107,72.877164,We Want You More
MUMBAI,,,19.052171,72.847017,We Want You More
SEWELL,NJ,080802599,39.745715,-75.095181,We Want You More
PENNSAUKEN,NJ,08110,39.949147,-75.046227,We Want You More
ROEBLING,NJ,085541117,40.097407,-74.7863,We Want You More
OAKLYN,NJ,081071231,39.914324,-75.063448,We Want You More
GLASSBORO,NJ,08028,39.456547,-75.121981,We Want You More
PENNSAUKEN,NJ,081101729,39.956929,-75.009108,We Want You More
BLACKWOOD,NJ,080124708,39.706013,-75.069903,We Want You More
BELLMAWR,NJ,080312813,39.916024,-75.109883,We Want You More
RANDOLPH,NJ,078691234,40.773824,-74.576054,We Want You More
RUNNEMEDE,NJ,080781726,39.868899,-75.071077,We Want You More
FLORENCE,NJ,085184024,40.116846,-74.847167,We Want You More
SOMERDALE,NJ,08083,39.866021,-75.078838,We Want You More
MAPLE SHADE,NJ,08052,39.938127,-75.018568,We Want You More
BURLINGTON,NJ,080162283,40.092507,-74.878653,We Want You More
JIM THORPE,PA,18229,40.928082,-75.705345,We Want You More
MOUNT LAUREL,NJ,080546113,39.943122,-74.938384,We Want You More
CINNAMINSON,NJ,08077,40.017896,-74.973652,We Want You More
CAMDEN,NJ,081022308,39.938569,-75.106232,We Want You More
PENNSAUKEN,NJ,081091606,39.947255,-75.025966,We Want You More
EGG HARBOR TOWNSHIP,NJ,08234,39.351786,-74.574793,We Want You More
BEVERLY,NJ,08010,40.095047,-74.862704,We Want You More
MERCHANTVILLE,NJ,081092062,39.930331,-75.024474,We Want You More
MILLSTONE TOWNSHIP,NJ,085351221,40.155167,-74.583346,We Want You More
MARLTON,NJ,080531019,39.910383,-74.932774,We Want You More
DEPTFORD,NJ,080966454,39.849328,-75.097254,We Want You More
MAPLE SHADE,NJ,080521926,39.941214,-75.0423,We Want You More
HADDON HEIGHTS,NJ,080351021,39.872649,-75.067235,We Want You More
BRIDGETON,NJ,083025729,39.428086,-75.247046,We Want You More
MEMPHIS,TN,38109,35.151707,-90.008867,We Want You More
EDISON,NJ,088372078,40.530105,-74.367843,We Want You More
BURLINGTON,NJ,080163952,40.090716,-74.83725,We Want You More
NORTH BRUNSWICK,NJ,089023057,40.418504,-74.450655,We Want You More
VINELAND,NJ,08360,39.490653,-75.031226,We Want You More
SILVER SPRING,MD,209047300,39.085705,-77.038014,We Want You More
ATLANTIC CITY,NJ,08401,39.364831,-74.427059,We Want You More
CAMDEN,NJ,08103,,,We Want You More
BURLINGTON,NJ,08016,,,We Want You More
MARLTON,NJ,08053,,,We Want You More
MOORESTOWN,NJ,080573332,,,We Want You More
WEST DEPTFORD,NJ,08096,,,We Want You More
BLACKWOOD,NJ,08012,,,We Want You More
CAMDEN,NJ,08104,,,We Want You More
SOUTH PLAINFIELD,NJ,070802771,,,We Want You More
BURLINGTON,NJ,080161708,,,We Want You More
ATCO,NJ,080041104,,,We Want You More
HAMILTON,NJ,08620,,,We Want You More
CAMDEN,NJ,081054046,,,We Want You More
MOUNT LAUREL,NJ,080541024,,,We Want You More
WILLIAMSTOWN,NJ,080943910,,,We Want You More
BEVERLY,NJ,080102562,,,We Want You More
BRIDGETON,NJ,083027143,,,We Want You More
DEMAREST,NJ,076271539,,,We Want You More
RIVERSIDE,NJ,080754114,,,We Want You More
BURLINGTON,NJ,080161031,,,We Want You More
DEPTFORD,NJ,080966024,,,We Want You More
BURLINGTON,NJ,080163875,,,We Want You More
VINELAND,NJ,083616408,,,We Want You More
CAMDEN,NJ,081054401,,,We Want You More
CINNAMINSON,NJ,080771561,,,We Want You More
MARLTON,NJ,080531926,,,We Want You More
MAPLE SHADE,NJ,080528468,,,We Want You More
WILLINGBORO,NJ,080463639,,,We Want You More
MONTCLAIR,NJ,070432415,,,We Want You More
BLACKWOOD,NJ,08012,,,We Want You More
HAMILTON,NJ,086105336,,,We Want You More
HADDON HEIGHTS,NJ,080351026,,,We Want You More
CAMDEN,NJ,08104,,,We Want You More
WILLIAMSTOWN,NJ,080945728,,,We Want You More
LAUREL SORINGS,NJ,080212869,,,We Want You More
NEWARK,NJ,07104,,,We Want You More
MEMPHIS,TN,38106,,,We Want You More
MOORESTOWN,NJ,080571007,,,We Want You More
STATEN ISLAND,NY,10302,,,We Want You More
SICKLERVILLE,NJ,080819362,,,We Want You More
CAMDEN,NJ,08102,,,We Want You More
TURNERSVILLE,NJ,080121107,,,We Want You More
CHERRY HILL,NJ,080343334,,,We Want You More
MARLTON,NJ,08053,,,We Want You More
CAMDEN,NJ,081051519,,,We Want You More
VOORHEES,NJ,080434843,,,We Want You More
BLACKWOOD,NJ,08012,,,We Want You More
CINNAMINSON,NJ,080772142,,,We Want You More
CHERRY HILL,NJ,080031710,,,We Want You More
PHILADELPHIA,PA,191143807,,,We Want You More
VINELAND,NJ,083606413,,,We Want You More
OCEAN CITY,NJ,08226,,,We Want You More
MEDFORD,NJ,08055,,,We Want You More
SICKLERVILLE,NJ,080811341,,,We Want You More
MARLBORO,NJ,077461551,,,We Want You More
CLAYTON,NJ,083121821,,,We Want You More
NEWARK,NJ,071063309,,,We Want You More
WOOLWICH TOWNSHIP,NJ,080852539,,,We Want You More
MARLTON,NJ,08053,,,We Want You More
MAPLE SHADE,NJ,080523316,,,We Want You More
PALMYRA,NJ,080652342,,,We Want You More
CHERRY HILL,NJ,080343351,,,We Want You More
PINE HILL,NJ,080215536,,,We Want You More
VOORHEES,NJ,080432181,,,We Want You More
TABERNACLE,NJ,080889748,,,We Want You More
ATCO,NJ,08004,,,We Want You More
PENNSAUKEN,NJ,081101827,,,We Want You More
TRENTON,NJ,08611,,,We Want You More
NEW BRUNSWICK,NJ,089013430,,,We Want You More
CHERRY HILL,NJ,080022965,,,We Want You More
MAPLE SHADE,NJ,080523207,,,We Want You More
MAGNOLIA,NJ,080491043,,,We Want You More
CAMDEN,NJ,,,,We Want You More
AUDUBON,NJ,081062140,,,We Want You More
MEMPHIS,TN,38107,,,We Want You More
DEPTFORD,NJ,080964747,,,We Want You More
RUNNEMEDE,NJ,080781219,,,We Want You More
GLOUCSTR CITY,NJ,080301619,,,We Want You More
PHILADELPHIA,PA,19123,,,We Want You More
CHERRY HILL,NJ,080341710,,,We Want You More
MEMPHIS,TN,381122412,,,We Want You More
MOUNT LAUREL,NJ,08054,,,We Want You More
MAPLE SHADE,NJ,08052,,,We Want You More
BROOKLYN,NY,112081007,,,We Want You More
PENNSAUKEN,NJ,08110,,,We Want You More
OAKLYN,NJ,081071103,,,We Want You More
PERTH AMBOY,NJ,088611609,,,We Want You More
SOUTH RIVER,NJ,088822129,,,We Want You More
SICKLERVILLE,NJ,080815650,,,We Want You More
SOUTHAMPTON,NJ,080883532,,,We Want You More
VOORHEES,NJ,080433708,,,We Want You More
LOGAN TOWNSHIP,NJ,080851343,,,We Want You More
PENNSAUKEN,NJ,081101239,,,We Want You More
FORKED RIVER,NJ,087312923,,,We Want You More
WILLINGBORO,NJ,080461717,,,We Want You More
CAPE MAY COURT HOUSE,NJ,08210,,,We Want You More
BELLMAWR,NJ,080311649,,,We Want You More
CINNAMINSON,NJ,08077,,,We Want You More
MAPLE SHADE,NJ,080521477,,,We Want You More
CAMDEN,NJ,081053941,,,We Want You More
SICKLERVILLE,NJ,080819394,,,We Want You More
CAMDEN,NJ,081022013,,,We Want You More
PENNSAUKEN,NJ,08110,,,We Want You More
PALMYRA,NJ,080651730,,,We Want You More
GLASSBORO,NJ,08028,,,We Want You More
CAMDEN,NJ,,,,We Want You More
MERCHANTVILLE,NJ,08109,,,We Want You More
PITMAN,NJ,080712230,,,We Want You More
CAMDEN,NJ,081042108,,,We Want You More
BERLIN,NJ,080097110,,,We Want You More
FORT MILL,SC,297087008,,,We Want You More
FAIRFIELD,NJ,070041873,,,We Want You More
ELIZABETH,NJ,072061611,,,We Want You More
OLD BRIDGE,NJ,088573641,,,We Want You More
LAUREL,MD,20724,,,We Want You More
CLAYTON,NJ,08312,,,We Want You More
HADDON TOWNSHIP,NJ,081081706,,,We Want You More
CHERRY HILL,NJ,08034,,,We Want You More
CAMDEN,NJ,081051148,,,We Want You More
HOWELL,NJ,07731,,,We Want You More
PLAINFIELD,NJ,070602110,,,We Want You More
DUBLIN,CA,945687449,,,We Want You More
PERTH AMBOY,NJ,08861,,,We Want You More
WILLINGBORO,NJ,080463027,,,We Want You More
WOOLWICH TWP,NJ,080854205,,,We Want You More
DELRAN,NJ,080751728,,,We Want You More
PENNSAUKEN,NJ,08110,,,We Want You More
SAN ANTONIO,TX,78230,,,We Want You More
EGG HARBOR TOWNSHIP,NJ,082347419,,,We Want You More
MOUNT LAUREL,NJ,08054,,,We Want You More
MAGNOLIA,NJ,080491727,,,We Want You More
NORTH PLAINFIELD,NJ,07060,,,We Want You More
PHILADELPHIA,PA,191351616,,,We Want You More
LINDENWOLD,NJ,080211973,,,We Want You More
CAMDEN,NJ,081032823,,,We Want You More
STRATFORD,NJ,080841714,,,We Want You More
CHERRY HILL,NJ,080032741,,,We Want You More
CHERRY HILL,NJ,08003,,,We Want You More
BERGENFIELD,NJ,076212239,,,We Want You More
BARRINGTON,NJ,080071407,,,We Want You More
AUDUBON,NJ,081062130,,,We Want You More
WESTAMPTON,NJ,08060,,,We Want You More
WESTAMPTON,NJ,080603740,,,We Want You More
MAYS LANDING,NJ,083302130,,,We Want You More
CHERRY HILL,NJ,080031982,,,We Want You More
PASSAIC,NJ,070556523,,,We Want You More
BERLIN,NJ,08009,,,We Want You More
MEMPHIS,TN,38106,,,We Want You More
MAPLE SHADE,NJ,08052,,,We Want You More
BERLIN BOROUGH,NJ,080092120,,,We Want You More
WHARTON,NJ,078851200,,,We Want You More
EWING,NJ,08618,,,We Want You More
MICKLETON,NJ,080561330,,,We Want You More
SPARTA,NJ,07871,,,We Want You More
WEST COLLINGSWOOD,NJ,081071948,,,We Want You More
PENNSAUKEN,NJ,08110,,,We Want You More
VOORHEES,NJ,08043,,,We Want You More
MOORESTOWN,NJ,080574107,,,We Want You More
DURHAM,NH,038242106,,,We Want You More
PENNSAUKEN,NJ,081091875,,,We Want You More
BROOKLYN,NY,112322316,,,We Want You More
WASHINGTON,DC,200193534,,,We Want You More
BLACKWOOD,NJ,080123826,,,We Want You More
SOMERSET,NJ,088731974,,,We Want You More
LONG BRANCH,NJ,077406110,,,We Want You More
BELLMAWR,NJ,08031,,,We Want You More
MOUNT LAUREL,NJ,080544822,,,We Want You More
SICKLERVILLE,NJ,08081,,,We Want You More
WILLINGBORO,NJ,080463705,,,We Want You More
MARLTON,NJ,08053,,,We Want You More
CHERRY HILL,NJ,080022354,,,We Want You More
GLOUCESTER CITY,NJ,080301679,,,We Want You More
MARLTON,NJ,080532665,,,We Want You More
PISCATAWAY,NJ,088545810,,,We Want You More
AUDUBON,NJ,081061542,,,We Want You More
MARLTON,NJ,080535571,,,We Want You More
MOUNT ROYAL,NJ,080611116,,,We Want You More
LIVINGSTON,NJ,070391301,,,We Want You More
TURNERSVILLE,NJ,08012,,,We Want You More
MOORESTOWN,NJ,080573967,,,We Want You More
VOORHEES,NJ,080431146,,,We Want You More
BARRINGTON,NJ,080071201,,,We Want You More
PENNSAUKEN,NJ,08110,,,We Want You More
BLACKWOOD,NJ,080124431,,,We Want You More
HAMILTON,NJ,086903817,,,We Want You More
BARRINGTON,NJ,080071201,,,We Want You More
CLEMENTON,NJ,08021,,,We Want You More
CAMDEN,NJ,081052339,,,We Want You More
EDISON,NJ,088172448,,,We Want You More
BURLINGTON,NJ,080163044,,,We Want You More
BURLINGTON,NJ,080163044,,,We Want You More
MARLTON,NJ,080532534,,,We Want You More
CHERRY HILL,NJ,080343743,,,We Want You More
BURLINGTON,NJ,080162330,,,We Want You More
CAMDEN,NJ,081052712,,,We Want You More
MARLTON,NJ,080534724,,,We Want You More
CAMDEN,NJ,08104,,,We Want You More
CAMDEN,NJ,08102,,,We Want You More
MEMPHIS,TN,381064420,,,We Want You More
PENNSAUKEN,NJ,081102939,,,We Want You More
MULLICA HILL,NJ,080624419,,,We Want You More
MERCHANTVILLE,NJ,081092645,,,We Want You More
STRATFORD,NJ,080841420,,,We Want You More
PISCATAWAY,NJ,08854,,,We Want You More
RALEIGH,NC,27610,,,We Want You More
FAIR LAWN,NJ,07410,,,We Want You More
WILLIAMSTOWN,NJ,080941688,,,We Want You More
MOUNT LAUREL,NJ,080543254,,,We Want You More
CAMDEN,NJ,081032815,,,We Want You More
CHERRY HILL,NJ,080031212,,,We Want You More
LINDENWOLD,NJ,080216884,,,We Want You More
LINDENWOLD,NJ,080216884,,,We Want You More
CAMDEN,NJ,081032935,,,We Want You More
VOORHEES,NJ,080431667,,,We Want You More
BLAIRSTOWN,NJ,078259681,,,We Want You More
LUTHERVILLE TIMONIUM,MD,210933972,,,We Want You More
CAMDEN,NJ,081052811,,,We Want You More
MAGNOLIA,NJ,080491165,,,We Want You More
CINNAMINSON,NJ,08077,,,We Want You More
SAYREVILLE,NJ,088722718,,,We Want You More
SOUTH PLAINFIELD,NJ,070802242,,,We Want You More
PENNSAUKEN,NJ,081101919,,,We Want You More
PENNSAUKEN,NJ,08109,,,We Want You More
CAMDEN,NJ,08104,,,We Want You More
EAST BRUNSWICK,NJ,088162668,,,We Want You More
CLEMENTON,NJ,080212541,,,We Want You More
SECAUCUS,NJ,070942105,,,We Want You More
CHERRY HILL,NJ,080021738,,,We Want You More
LAKEWOOD,NJ,087014414,,,We Want You More
GLOUCESTER CITY,NJ,080301676,,,We Want You More
BRIDGETON,NJ,08302,,,We Want You More
WASHINGTON,DC,200326005,,,We Want You More
EDGEWATER PARK,NJ,08010,,,We Want You More
MONROEVILLE,NJ,083432507,,,We Want You More
CLEMENTON,NJ,08021,,,We Want You More
NEW BRUNSWICK,NJ,089014604,,,We Want You More
SICKLERVILLE,NJ,080813239,,,We Want You More
BELLMAWR,NJ,08031,,,We Want You More
BRIDGETON,NJ,083022522,,,We Want You More
STRATFORD,NJ,080841909,,,We Want You More
BLACKWOOD,NJ,080123929,,,We Want You More
MOUNT LAUREL,NJ,08054,,,We Want You More
NATIONAL PARK,NJ,08063,,,We Want You More
CAMDEN,NJ,08105,,,We Want You More
SOUTHAMPTON,NJ,080889116,,,We Want You More
NEWARK,NJ,071063147,,,We Want You More
MARLTON,NJ,08002,,,We Want You More
PHILADELPHIA,PA,191153144,,,We Want You More
FRANKLINVILLE,NJ,083224700,,,We Want You More
WOODHAVEN,NY,114212751,,,We Want You More
CLEMENTON,NJ,08021,,,We Want You More
BELLMAWR,NJ,080312817,,,We Want You More
HADDON HEIGHTS,NJ,080351313,,,We Want You More
CAMDEN,NJ,081054316,,,We Want You More
GLOUCESTER CITY,NJ,08030,,,We Want You More
MOUNT ROYAL,NJ,08061,,,We Want You More
ATLANTIC CITY,NJ,084012017,,,We Want You More
TRENTON,NJ,086182933,,,We Want You More
JOINT BASE MDL,NJ,08733,,,We Want You More
SICKLERVILLE,NJ,08081,,,We Want You More
OAKLYN,NJ,081071903,,,We Want You More
PENNSAUKEN,NJ,08109,,,We Want You More
MAPLE SHADE,NJ,080521142,,,We Want You More
ELIZABETH,NJ,07201,,,We Want You More
MILLVILLE,NJ,083324320,,,We Want You More
BAYONNE,NJ,070024217,,,We Want You More
MAPLE SHADE,NJ,080521201,,,We Want You More
BOWIE,MD,207151071,,,We Want You More
MAPLE SHADE,NJ,08052,,,We Want You More
CAMDEN,NJ,08105,,,We Want You More
EGG HARBOR TOWNSHIP,NJ,082346624,,,We Want You More
SICKLERVILLE,NJ,08081,,,We Want You More
VOORHEES,NJ,080431210,,,We Want You More
PRINCETON,NJ,085408500,,,We Want You More
ASTON,PA,190143600,,,We Want You More
COLUMBUS,NJ,08022,,,We Want You More
WOODBINE,NJ,082702118,,,We Want You More
MARLTON,NJ,08053,,,We Want You More
PENNSAUKEN,NJ,081093676,,,We Want You More
SICKLERVILLE,NJ,08081,,,We Want You More
BELLMAWR,NJ,080311110,,,We Want You More
NEW BRUNSWICK,NJ,089012828,,,We Want You More
MOORESTOWN,NJ,080573519,,,We Want You More
NORTHFIELD,NJ,082251500,,,We Want You More
CAMDEN,NJ,08102,,,We Want You More
VOORHEES,NJ,080432039,,,We Want You More
ERIAL,NJ,080813234,,,We Want You More
EWING,NJ,086384725,,,We Want You More
LUMBERTON,NJ,080483412,,,We Want You More
PENNSVILLE,NJ,080702003,,,We Want You More
CLINTON,MD,207353086,,,We Want You More
NORTH BRUNSWICK,NJ,089025810,,,We Want You More
PARKVILLE,MD,212343367,,,We Want You More
CAMDEN,NJ,08104,,,We Want You More
PALMYRA,NJ,080652416,,,We Want You More
MORRIS PLAINS,NJ,079501252,,,We Want You More
BERLIN,NJ,080099469,,,We Want You More
CAMDEN,NJ,081054022,,,We Want You More
ENGLEWOOD,NJ,07631,,,We Want You More
HOWELL,NJ,077311803,,,We Want You More
JACKSON,NJ,085271748,,,We Want You More
WILLINGBORO,NJ,080461505,,,We Want You More
HADDON TWP,NJ,08108,,,We Want You More
BRIDGETON,NJ,083022111,,,We Want You More
DELRAN,NJ,080751346,,,We Want You More
ERIAL,NJ,08081,,,We Want You More
LAWNSIDE,NJ,080451537,,,We Want You More
RED BANK,NJ,07701,,,We Want You More
RIVERSIDE,NJ,080753413,,,We Want You More
PENNSAUKEN,NJ,081105601,,,We Want You More
CLEMENTON,NJ,080212742,,,We Want You More
PHILADELPHIA,PA,19154,,,We Want You More
FREEHOLD,NJ,077284085,,,We Want You More
EAST BRUNSWICK,NJ,088162505,,,We Want You More
CAMDEN,NJ,081051128,,,We Want You More
CAMDEN,NJ,081032044,,,We Want You More
WARWICK,RI,,,,We Want You More
CHERRY HILL,NJ,080022378,,,We Want You More
CHERRY HILL,NJ,080022208,,,We Want You More
SOUTH RIVER,NJ,08882,,,We Want You More
RUNNEMEDE,NJ,080781327,,,We Want You More
TURNERSVILLE,NJ,08012,,,We Want You More
BLACKWOOD,NJ,08012,,,We Want You More
RED BANK,NJ,077012211,,,We Want You More
PENNSVILLE,NJ,080702243,,,We Want You More
CHERRY HILL,NJ,080021514,,,We Want You More
BRIDGETON,NJ,083023807,,,We Want You More
ATCO,NJ,08004,,,We Want You More
ATCO,NJ,080041419,,,We Want You More
CAMDEN,NJ,081054310,,,We Want You More
DALLAS,TX,75214,,,We Want You More
NORTH BRUNSWICK,NJ,089023807,,,We Want You More
LAWRENCE TOWNSHIP,NJ,086483824,,,We Want You More
FLORENCE,NJ,085181101,,,We Want You More
CINNAMINSON,NJ,08077,,,We Want You More
MILFORD,NJ,08848,,,We Want You More
VOORHEES,NJ,080432413,,,We Want You More
PENNSAUKEN,NJ,08110,,,We Want You More
CINNAMINSON,NJ,080772909,,,We Want You More
HADDON TOWNSHIP,NJ,08107,,,We Want You More
HADDON TOWNSHIP,NJ,081082600,,,We Want You More
JERSEY CITY,NJ,07307,,,We Want You More
MARMORA,NJ,08223,,,We Want You More
CLEMENTON,NJ,08021,,,We Want You More
CAMDEN,NJ,081053955,,,We Want You More
MERCHANTVILLE,NJ,081092523,,,We Want You More
CAMDEN,NJ,08103,,,We Want You More
CHERRY HILL,NJ,080021226,,,We Want You More
PITMAN,NJ,080711048,,,We Want You More
CAMDEN,NJ,081042545,,,We Want You More
PINE HILL,NJ,080216308,,,We Want You More
SICKLERVILLE,NJ,080814026,,,We Want You More
HADDON TOWNSHIP,NJ,081082620,,,We Want You More
PENNS GROVE,NJ,08069,,,We Want You More
WILLIAMSTOWN,NJ,08094,,,We Want You More
GLOUCESTER CITY,NJ,08030,,,We Want You More
EGG HARBOR TOWNSHIP,NJ,082344819,,,We Want You More
NEWARK,DE,197028633,,,We Want You More
CAMDEN,NJ,081032841,,,We Want You More
BURLINGTON,NJ,080163811,,,We Want You More
VOORHEES,NJ,080433453,,,We Want You More
SICKLERVILLE,NJ,080815719,,,We Want You More
YONKERS,NY,107043656,,,We Want You More
CAMDEN,NJ,081021050,,,We Want You More
MARLTON,NJ,08053,,,We Want You More
HAINESPORT,NJ,080364880,,,We Want You More
SWEDESBORO,NJ,080852530,,,We Want You More
WILLIAMSTOWN,NJ,08094,,,We Want You More
PENNSAUKEN,NJ,081091550,,,We Want You More
PENNSAUKEN,NJ,081093364,,,We Want You More
OAKLAND,NJ,074361922,,,We Want You More
SWEDESBORO,NJ,08085,,,We Want You More
DELRAN,NJ,080752850,,,We Want You More
CHERRY HILL,NJ,080022706,,,We Want You More
GIBBSTOWN,NJ,08027,,,We Want You More
DELANCO,NJ,080754828,,,We Want You More
CLAYTON,NJ,083122441,,,We Want You More
GLASSBORO,NJ,080283510,,,We Want You More
ERIAL,NJ,080811167,,,We Want You More
BERLIN,NJ,080097112,,,We Want You More
SEWELL,NJ,08080,,,We Want You More
CHERRY HILL,NJ,08002,,,We Want You More
CHERRY HILL,NJ,08002,,,We Want You More
MAPLE SHADE,NJ,080521306,,,We Want You More
MAGNOLIA,NJ,08049,,,We Want You More
EVESHAM,NJ,080532457,,,We Want You More
BURLINGTON,NJ,08016,,,We Want You More
PHILADELPHIA,PA,191371615,,,We Want You More
EGG HARBOR TOWNSHIP,NJ,082345419,,,We Want You More
BERLIN,NJ,080098901,,,We Want You More
EGG HARBOR CITY,NJ,082154100,,,We Want You More
SICKLERVILLE,NJ,080811626,,,We Want You More
WEST DEPTFORD,NJ,080932269,,,We Want You More
BEIJING,,00000,,,We Want You More
COLLINGSWOOD,NJ,08108,,,We Want You More
VOORHEES,NJ,080431178,,,We Want You More
ASTON,PA,19014,,,We Want You More
LUMBERTON,NJ,080484544,,,We Want You More
CLARKSBURG,NJ,085101541,,,We Want You More
DELRAN,NJ,080754136,,,We Want You More
SICKLERVILLE,NJ,080814890,,,We Want You More
CAMDEN,NJ,081042279,,,We Want You More
VOORHEES,NJ,080432118,,,We Want You More
CAMDEN,NJ,08110,,,We Want You More
LONG BRANCH,NJ,077405171,,,We Want You More
SOMERDALE,NJ,080831724,,,We Want You More
TURNERSVILLE,NJ,080121031,,,We Want You More
NEWARK,NJ,071041433,,,We Want You More
SICKLERVILLE,NJ,080811957,,,We Want You More
MAYS LANDING,NJ,083302602,,,We Want You More
CHERRY HILL,NJ,080342104,,,We Want You More
PHILADELPHIA,PA,191492204,,,We Want You More
MOUNT LAUREL,NJ,08054,,,We Want You More
DEPTFORD,NJ,080965339,,,We Want You More
BERLIN,NJ,08009,,,We Want You More
DELRAN,NJ,080751615,,,We Want You More
CHERRY HILL,NJ,080032202,,,We Want You More
COLLINGSWOOD,NJ,081071726,,,We Want You More
SEWELL,NJ,08080,,,We Want You More
SICKLERVILLE,NJ,08081,,,We Want You More
BORDENTOWN,NJ,085051162,,,We Want You More
CHERRY HILL,NJ,080033514,,,We Want You More
LINDENWOLD,NJ,080211319,,,We Want You More
CHERRY HILL,NJ,080023009,,,We Want You More
HADDONFIELD,NJ,080331014,,,We Want You More
VERONA,NJ,070441715,,,We Want You More
PENNSAUKEN,NJ,081102010,,,We Want You More
CAMDEN,NJ,081051402,,,We Want You More
RIVERTON,NJ,080771709,,,We Want You More
CAMDEN,NJ,081033225,,,We Want You More
EAST WINDSOR,NJ,085121433,,,We Want You More
LINDENWOLD,NJ,08021,,,We Want You More
E BRUNSWICK,NJ,088164225,,,We Want You More
EAST BRUNSWICK,NJ,08816,,,We Want You More
BLACKWOOD,NJ,080124564,,,We Want You More
HOLMDEL,NJ,077331126,,,We Want You More
MORGANVILLE,NJ,077519740,,,We Want You More
PLEASANTVILLE,NJ,08232,,,We Want You More
BLACKWOOD,NJ,080123929,,,We Want You More
SICKLERVILLE,NJ,080815504,,,We Want You More
ASBURY PARK,NJ,077123767,,,We Want You More
OAKLYN,NJ,081072419,,,We Want You More
CHERRY HILL,NJ,080341630,,,We Want You More
BLACKWOOD,NJ,080123934,,,We Want You More
WALL,NJ,07727,,,We Want You More
SICKLERVILLE,NJ,080811321,,,We Want You More
PENNSAUKEN,NJ,081092761,,,We Want You More
HAMILTON,NJ,086191156,,,We Want You More
NEWARK,NJ,071081109,,,We Want You More
CAMDEN,NJ,081054430,,,We Want You More
STRATFORD,NJ,080841100,,,We Want You More
ATCO,NJ,080041540,,,We Want You More
BLACKWOOD,NJ,080122756,,,We Want You More
WEST BERLIN,NJ,080913810,,,We Want You More
PENNSAUKEN,NJ,081103133,,,We Want You More
OAKLYN,NJ,081071438,,,We Want You More
CHERRY HILL,NJ,08002,,,We Want You More
BERLIN,NJ,080091449,,,We Want You More
SICKLERVILLE,NJ,08081,,,We Want You More
PENNSAUKEN,NJ,081103609,,,We Want You More
NORTH HALEDON,NJ,075082731,,,We Want You More
WESTVILLE,NJ,080931853,,,We Want You More
CINNAMINSON,NJ,080773453,,,We Want You More
CAPE MAY COURT HOUSE,NJ,08210,,,We Want You More
WOODBURY,NJ,08096,,,We Want You More
WOODBURY,NJ,08096,,,We Want You More
MANALAPAN,NJ,077269520,,,We Want You More
SOMERDALE,NJ,08083,,,We Want You More
BERLIN,NJ,080099463,,,We Want You More
ROBBINSVILLE,NJ,086913446,,,We Want You More
WENONAH,NJ,080901446,,,We Want You More
SICKLERVILLE,NJ,080813105,,,We Want You More
BLACKWOOD,NJ,080122575,,,We Want You More
HAMMONTON,NJ,08037,,,We Want You More
RUNNEMEDE,NJ,080782011,,,We Want You More
CLIFFWOOD,NJ,077211353,,,We Want You More
PENNSAUKEN,NJ,081091117,,,We Want You More
MEDFORD,NJ,080552411,,,We Want You More
SICKLERVILLE,NJ,08081,,,We Want You More
PENNSAUKEN,NJ,08110,,,We Want You More
MERCHANTVILLE,NJ,081091856,,,We Want You More
HACKETTSTOWN,NJ,078401836,,,We Want You More
GALLOWAY,NJ,082059765,,,We Want You More
MAGNOLIA,NJ,080491051,,,We Want You More
WOODBURY HTS,NJ,08097,,,We Want You More
WEST BERLIN,NJ,080919177,,,We Want You More
CLARKSBORO,NJ,08020,,,We Want You More
CLEMENTON,NJ,080214220,,,We Want You More
CAMDEN,NJ,081041949,,,We Want You More
LINDENWOLD,NJ,08021,,,We Want You More
LINDENWOLD,NJ,080215911,,,We Want You More
VOORHEES,NJ,08043,,,We Want You More
PENNSAUKEN,NJ,08109,,,We Want You More
SICKLERVILLE,NJ,080812401,,,We Want You More
PARLIN,NJ,08859,,,We Want You More
ERIAL,NJ,080812210,,,We Want You More
MORGANVILLE,NJ,077512018,,,We Want You More
LITTLE EGG HARBOR TWP,NJ,080871615,,,We Want You More
SICKLERVILLE,NJ,08081,,,We Want You More
SOMERDALE,NJ,080831643,,,We Want You More
SICKLERVILLE,NJ,080813400,,,We Want You More
CAPE MAY COURT HOUSE,NJ,082102046,,,We Want You More
TRENTON,NJ,08638,,,We Want You More
PENNSAUKEN,NJ,081093721,,,We Want You More
CHERRY HILL,NJ,08034,,,We Want You More
PENNSAUKEN,NJ,081091749,,,We Want You More
PENNSAUKEN,NJ,08110,,,We Want You More
NORTH CAPE MAY,NJ,08204,,,We Want You More
PLEASANTVILLE,NJ,082321222,,,We Want You More
FARMINGDALE,NJ,077271419,,,We Want You More
SALEM,NJ,08079,,,We Want You More
GLENDORA,NJ,080291030,,,We Want You More
WILDWOOD,NJ,082601474,,,We Want You More
FREEHOLD,NJ,077282344,,,We Want You More
BELLMAWR,NJ,080312345,,,We Want You More
CAMDEN,NJ,081054332,,,We Want You More
PENNSAUKEN,NJ,081101933,,,We Want You More
BLACKWOOD,NJ,080127802,,,We Want You More
OCEAN,NJ,077128407,,,We Want You More
CLIFFWOOD,NJ,077211005,,,We Want You More
COLLINGSWOOD,NJ,081072050,,,We Want You More
WESTVILLE,NJ,080933532,,,We Want You More
FAIR HAVEN,NJ,077043252,,,We Want You More
BELLMAWR,NJ,080312643,,,We Want You More
PENNSAUKEN,NJ,08110,,,We Want You More
PINE HILL,NJ,08021,,,We Want You More
GLOUCESTER CITY,NJ,080302311,,,We Want You More
LINDENWOLD,NJ,08021,,,We Want You More
GIBBSBORO,NJ,08026,,,We Want You More
PLEASANTVILLE,NJ,08232,,,We Want You More
CHERRY HILL,NJ,080022037,,,We Want You More
MARLBORO,NJ,077461051,,,We Want You More
VOORHEES,NJ,080432229,,,We Want You More
WESTAMPTON,NJ,,,,We Want You More
BLACKWOOD,NJ,08012,,,We Want You More
EGG HARBOR CITY,NJ,082154233,,,We Want You More
PLEASANTVILLE,NJ,082323506,,,We Want You More
SICKLERVILLE,NJ,080812511,,,We Want You More
MERCHANTVILLE,NJ,081095108,,,We Want You More
CAMDEN,NJ,081054053,,,We Want You More
CAMDEN,NJ,081021810,,,We Want You More
GALLOWAY,NJ,08205,,,We Want You More
MAYS LANDING,NJ,083302274,,,We Want You More
BERLIN,NJ,080099744,,,We Want You More
LINDENWOLD,NJ,08021,,,We Want You More
HAMMONTON,NJ,080371169,,,We Want You More
MAYS LANDING,NJ,08330,,,We Want You More
PENNSAUKEN,NJ,08109,,,We Want You More
CAMDEN,NJ,081021821,,,We Want You More
WILLIAMSTOWN,NJ,080941231,,,We Want You More
GLOUCESTER CITY,NJ,080301615,,,We Want You More
ATCO,NJ,080041407,,,We Want You More
CAMDEN,NJ,081041356,,,We Want You More
CAPE MAY COURT HOUSE,NJ,082101222,,,We Want You More
HAMILTON,NJ,086193540,,,We Want You More
MOUNT LAUREL,NJ,080542420,,,We Want You More
TURNERSVILLE,NJ,08012,,,We Want You More
BROWNS MILLS,NJ,080153140,,,We Want You More
OAKLYN,NJ,081071103,,,We Want You More
WEST DEPTFORD,NJ,08051,,,We Want You More
CAMDEN,NJ,081032932,,,We Want You More
PARLIN,NJ,088591806,,,We Want You More
CLAYTON,NJ,083121964,,,We Want You More
CHERRY HILL,NJ,080342804,,,We Want You More
HADDON TOWNSHIP,NJ,081081706,,,We Want You More
WOOLWICH TOWNSH,NJ,08085,,,We Want You More
FARMINGDALE,NJ,077273513,,,We Want You More
PLEASANTVILLE,NJ,082321452,,,We Want You More
CRANFORD,NJ,070162144,,,We Want You More
SEWELL,NJ,08080,,,We Want You More
PENNSAUKEN,NJ,081106130,,,We Want You More
OAKLYN,NJ,081071231,,,We Want You More
MOUNT LAUREL,NJ,080546207,,,We Want You More
GLOUCESTER CITY,NJ,080301703,,,We Want You More
PENNSAUKEN,NJ,081101906,,,We Want You More
SEWELL,NJ,08080,,,We Want You More
PENNSAUKEN,NJ,081106440,,,We Want You More
BLACKWOOD,NJ,08012,,,We Want You More
EGG HARBOR TOWNSHIP,NJ,08234,,,We Want You More
CAMDEN,NJ,081052510,,,We Want You More
CAMDEN,NJ,08102,,,We Want You More
WEST DEPTFORD,NJ,080862000,,,We Want You More
CHERRY HILL,NJ,080341801,,,We Want You More
CAMDEN,NJ,08104,,,We Want You More
PENNSAUKEN,NJ,081103118,,,We Want You More
MARLTON,NJ,08053,,,We Want You More
WILLINGBORO,NJ,08046,,,We Want You More
STRATFORD,NJ,08084,,,We Want You More
LUMBERTON,NJ,080489531,,,We Want You More
NORTHFIELD,NJ,08225,,,We Want You More
PENNSAUKEN,NJ,081103104,,,We Want You More
SICKLERVILLE,NJ,08081,,,We Want You More
CARNEYS POINT,NJ,080692431,,,We Want You More
MAPLE SHADE,NJ,08052,,,We Want You More
HADDONFIELD,NJ,080333933,,,We Want You More
STAFFORD TOWNSHIP,NJ,080507893,,,We Want You More
CINNAMINSON,NJ,080771571,,,We Want You More
CAMDEN,NJ,081054308,,,We Want You More
MILLSTONE TOWNSHIP,NJ,085101705,,,We Want You More
MAGNOLIA,NJ,08049,,,We Want You More
OAKLYN,NJ,08107,,,We Want You More
SUMMERVILLE,SC,294857341,,,We Want You More
CLAYTON,NJ,083121261,,,We Want You More
DAYTON,NJ,088101592,,,We Want You More
WOODBURY HTS,NJ,080971435,,,We Want You More
PISCATAWAY,NJ,08854,,,We Want You More
PITMAN,NJ,080711048,,,We Want You More
ROBBINSVILLE,NJ,086913097,,,We Want You More
MERCHANTVILLE,NJ,08109,,,We Want You More
PENNSAUKEN,NJ,081102215,,,We Want You More
WEST DEPFORD,NJ,08096,,,We Want You More
SICKLERVILLE,NJ,08081,,,We Want You More
WILLINGBORO,NJ,08046,,,We Want You More
BURLINGTON,NJ,080162234,,,We Want You More
MOUNT LAUREL,NJ,080545722,,,We Want You More
CHERRY HILL,NJ,08002,,,We Want You More
PENNSAUKEN TOWNSHIP,NJ,08109,,,We Want You More
FRANKLINVILLE,NJ,08322,,,We Want You More
CINNAMINSON,NJ,080772142,,,We Want You More
COLLINGSWOOD,NJ,08108,,,We Want You More
SEWELL,NJ,080801678,,,We Want You More
CHERRY HILL,NJ,08003,,,We Want You More
VOORHEES,NJ,080431039,,,We Want You More
CAMDEN,NJ,08104,,,We Want You More
WOODLYNNE,NJ,081072246,,,We Want You More
MILFORD,PA,18337,,,We Want You More
PHILA,PA,191202601,,,We Want You More
MARLTON,NJ,08053,,,We Want You More
BURLINGTON,NJ,08016,,,We Want You More
MOUNT LAUREL,NJ,08054,,,We Want You More
SALEM,NJ,080791809,,,We Want You More
RED BANK,NJ,077016236,,,We Want You More
STRATFORD,NJ,080841408,,,We Want You More
MOUNT LAUREL,NJ,080545991,,,We Want You More
HADDON TOWNSHIP,NJ,081082316,,,We Want You More
MAGNOLIA,NJ,080491015,,,We Want You More
MONROE TOWNSHIP,NJ,08831,,,We Want You More
BRIDGETON,NJ,083022718,,,We Want You More
GLASSBORO,NJ,08028,,,We Want You More
MOUNT HOLLY,NJ,080601360,,,We Want You More
WEST BERLIN,NJ,08091,,,We Want You More
HAMMONTON,NJ,08037,,,We Want You More
CHERRY HILL,NJ,080343329,,,We Want You More
EGG HARBOR TOWNSHIP,NJ,082344101,,,We Want You More
WOODBURY,NJ,080966416,,,We Want You More
PENNSAUKEN,NJ,08109,,,We Want You More
BLACKWOOD,NJ,080122420,,,We Want You More
MERCHANTVILLE,NJ,081092922,,,We Want You More
SEWELL,NJ,080801951,,,We Want You More
CLEMENTON,NJ,08021,,,We Want You More
SICKLERVILLE,NJ,08081,,,We Want You More
NEWARK,NJ,07112,,,We Want You More
VOORHEES,NJ,080434736,,,We Want You More
PRINCETON,NJ,085407652,,,We Want You More
OCEAN VIEW,NJ,082301604,,,We Want You More
MANALAPAN,NJ,077263218,,,We Want You More
ROCKAWAY,NJ,07866,,,We Want You More
MARLTON,NJ,08053,,,We Want You More
BROWNS MILLS,NJ,080155910,,,We Want You More
MEDFORD,NJ,080552331,,,We Want You More
WEST DEPTFORD,NJ,080931940,,,We Want You More
ROSELLE,NJ,07203,,,We Want You More
LOGAN TOWNSHIP,NJ,08085,,,We Want You More
POMPTON LAKES,NJ,07442,,,We Want You More
PARLIN,NJ,088592516,,,We Want You More
SICKLERVILLE,NJ,08081,,,We Want You More
CLIFTON,NJ,07013,,,We Want You More
BLENHEIM,NJ,080123077,,,We Want You More
BLACKWOOD,NJ,08012,,,We Want You More
WEST DEPTFORD,NJ,080862008,,,We Want You More
BELLMAWR,NJ,08031,,,We Want You More
PENNSAUKEN,NJ,08109,,,We Want You More
BRIGANTINE,NJ,082031091,,,We Want You More
BAYONNE,NJ,07002,,,We Want You More
ROSELLE,NJ,07203,,,We Want You More
CARNEYS POINT,NJ,080691026,,,We Want You More
CAMDEN,NJ,081042108,,,We Want You More
MOUNT LAUREL,NJ,08054,,,We Want You More
PENNSAUKEN,NJ,08110,,,We Want You More
CHERRY HILL,NJ,08003,,,We Want You More
WOODBURY,NJ,08096,,,We Want You More
CAMDEN,NJ,081032705,,,We Want You More
MONTCLAIR,NJ,07042,,,We Want You More
LINDENWOLD,NJ,08021,,,We Want You More
SOUTH BRUNSWICK TOWNSHIP,NJ,08824,,,We Want You More
PENNSAUKEN,NJ,081106319,,,We Want You More
COLLINGSWOOD,NJ,08108,,,We Want You More
PISCATAWAY,NJ,088545739,,,We Want You More
CAMDEN,NJ,081051829,,,We Want You More
GLOUCESTER,NJ,08030,,,We Want You More
JACKSON,NJ,085271183,,,We Want You More
JERSEY CITY,NJ,073043715,,,We Want You More
HIGHLAND PARK,NJ,089041939,,,We Want You More
CAMDEN,NJ,08105,,,We Want You More
SICKLERVILLE,NJ,08081,,,We Want You More
CAMDEN,NJ,08104,,,We Want You More
CHERRY HILL,NJ,08034,,,We Want You More
SEWELL,NJ,08080,,,We Want You More
SWEDESBORO,NJ,08085,,,We Want You More
NASHVILLE,TN,372074330,,,We Want You More
MANTUA,NJ,80851,,,We Want You More
ATCO,NJ,080042261,,,We Want You More
WESTVILLE,NJ,080931418,,,We Want You More
STRATFORD,NJ,08084,,,We Want You More
BLACKWOOD,NJ,080125106,,,We Want You More
WOODBURY HTS,NJ,080971036,,,We Want You More
PENNSAUKEN,NJ,081091716,,,We Want You More
GLOUCESTER CITY,NJ,08030,,,We Want You More
OAKLYN,NJ,081071109,,,We Want You More
VOORHEES,NJ,080431211,,,We Want You More
BARRINGTON,NJ,08007,,,We Want You More
PENNSAUKEN,NJ,08110,,,We Want You More
HOWELL,NJ,07731,,,We Want You More
MANASQUAN,NJ,087363554,,,We Want You More
PENNSAUKEN,NJ,081101734,,,We Want You More
MILLVILLE,NJ,083329795,,,We Want You More
CAMDEN,NJ,081042712,,,We Want You More
GLOUCESTER,NJ,08030,,,We Want You More
CHERRY HILL,NJ,080343234,,,We Want You More
JACKSON,NJ,085275331,,,We Want You More
EGG HARBOR TOWNSHIP,NJ,082349531,,,We Want You More
BELLMAWR,NJ,080311508,,,We Want You More
WEST DEPTFORD,NJ,08051,,,We Want You More
CAMDEN,NJ,08104,,,We Want You More
CHERRYHILL,NJ,08003,,,We Want You More
OAKLYN,NJ,08107,,,We Want You More
TRENTON,NJ,086185836,,,We Want You More
PENNSAUKEN,NJ,08110,,,We Want You More
WILDWOOD,NJ,082604415,,,We Want You More
ATLANTIC CITY,NJ,084013033,,,We Want You More
MANVILLE,NJ,088352334,,,We Want You More
BROWNS MILLS,NJ,080155927,,,We Want You More
ATCO,NJ,080042920,,,We Want You More
TURNERSVILLE,NJ,08012,,,We Want You More
SOMERDALE,NJ,080831148,,,We Want You More
CHERRY HILL,NJ,08002,,,We Want You More
PENNSUAKEN,NJ,08110,,,We Want You More
CHERRY HILL,NJ,08034,,,We Want You More
HADDON TOWNSHIP,NJ,08107,,,We Want You More
MARLTON,NJ,080535621,,,We Want You More
LINDENWOLD,NJ,08021,,,We Want You More
ASBURY PARK,NJ,07712,,,We Want You More
SAYREVILLE,NJ,088722710,,,We Want You More
VOORHEES,NJ,080434645,,,We Want You More
CHERRY HILL,NJ,080033638,,,We Want You More
MOUNT LAUREL,NJ,08054,,,We Want You More
MEDFORD,NJ,08055,,,We Want You More
JACKSON,NJ,085273170,,,We Want You More
WESTMONT,NJ,08108,,,We Want You More
CARNEYS POINT,NJ,080692834,,,We Want You More
BURLINGTON,NJ,080169713,,,We Want You More
PHILADELPHIA,PA,19107,,,We Want You More
RAHWAY,NJ,07065,,,We Want You More
CLEMENTON,NJ,080215538,,,We Want You More
GIBBSTOWN,NJ,080271211,,,We Want You More
PINE HILL,NJ,080216229,,,We Want You More
VOORHEES,NJ,08043,,,We Want You More
WILLINGBORO,NJ,080463171,,,We Want You More
EGG HARBOR TOWNSHIP,NJ,08234,,,We Want You More
CHERRY HILL,NJ,080031425,,,We Want You More
CAMDEN,NJ,081021818,,,We Want You More
VOORHEES,NJ,080432004,,,We Want You More
CINNAMINSON,NJ,080772131,,,We Want You More
LAWNSIDE,NJ,080452004,,,We Want You More
WILLINGBORO,NJ,080462750,,,We Want You More
PENNSAUKEN,NJ,08109,,,We Want You More
MOUNT EPHRAIM,NJ,08059,,,We Want You More
CAMDEN,NJ,08103,,,We Want You More
TRENTON,NJ,08629,,,We Want You More
BELFORD,NJ,077181265,,,We Want You More
CAMDEN,NJ,081043022,,,We Want You More
SOMERDALE,NJ,080832053,,,We Want You More
GLOUCESTER CITY,NJ,080302037,,,We Want You More
CAMDEN,NJ,081052606,,,We Want You More
PRINCETON,NJ,085407652,,,We Want You More
VOORHEES,NJ,08043,,,We Want You More
SOMERDALE,NJ,080832018,,,We Want You More
KEANSBURG,NJ,077341827,,,We Want You More
HADDONFIELD,NJ,08033,,,We Want You More
PENNSAUKEN,NJ,081091738,,,We Want You More
CAMDEN,NJ,081053018,,,We Want You More
MIDDLETOWN,NJ,077481571,,,We Want You More
FREEHOLD,NJ,077282835,,,We Want You More
VINELAND,NJ,08360,,,We Want You More
SEWELL,NJ,080802212,,,We Want You More
WEST ORANGE,NJ,07052,,,We Want You More
TEANECK,NJ,07666,,,We Want You More
PENNSAUKEN,NJ,081103603,,,We Want You More
PITMAN,NJ,08071,,,We Want You More
PITMAN,NJ,080711845,,,We Want You More
CHERRY HILL,NJ,08002,,,We Want You More
JACKSON,NJ,085274646,,,We Want You More
CINNAMINSON,NJ,080773866,,,We Want You More
CHERRY HILL,NJ,080033418,,,We Want You More
BERLIN,NJ,08009,,,We Want You More
SICKERVILLE,NJ,08081,,,We Want You More
BLACKWOOD,NJ,08012,,,We Want You More
CINNAMINSON,NJ,08077,,,We Want You More
BRIGANTINE,NJ,08203,,,We Want You More
CHERRY HILL,NJ,080031720,,,We Want You More
DELRAN,NJ,080751709,,,We Want You More
MOUNT LAUREL,NJ,08054,,,We Want You More
EGG HARBOR TOWNSHIP,NJ,082347904,,,We Want You More
CAMDEN,NJ,08105,,,We Want You More
MONTOE,NJ,08831,,,We Want You More
PAULSBORO,NJ,08066,,,We Want You More
RUNNEMEDE,NJ,080781206,,,We Want You More
PARLIN,NJ,088592125,,,We Want You More
CHERRY HILL,NJ,080033705,,,We Want You More
CAMDEN,NJ,08104,,,We Want You More
CAMDEN,NJ,081041605,,,We Want You More
CAMDEN,NJ,081053908,,,We Want You More
BRANCHBURG,NJ,088763761,,,We Want You More
CAMDEN,NJ,081041744,,,We Want You More
MIDDLETOWN,NJ,077484237,,,We Want You More
CAMDEN,NJ,08103,,,We Want You More
MERCHANTVILLE,NJ,08109,,,We Want You More
SOMERDALE,NJ,08083,,,We Want You More
CAMDEN,NJ,08104,,,We Want You More
GLOUCESTER TOWNSHIP,NJ,08081,,,We Want You More
CHERRY HILL,NJ,08003,,,We Want You More
CAMDEN,NJ,08102,,,We Want You More
WILLINGBORO,NJ,080463005,,,We Want You More
MORGANVILLE,NJ,077511746,,,We Want You More
MIDDLETOWN,NJ,077481921,,,We Want You More
MARLTON,NJ,080533615,,,We Want You More
WILMINGTON,DE,19805,,,We Want You More
CHERRY HILL,NJ,08002,,,We Want You More
FLORENCE,NJ,08518,,,We Want You More
PERTH AMBOY,NJ,088611736,,,We Want You More
NANNING,,,,,We Want You More
PENNSAUKEN,NJ,081106202,,,We Want You More
VINELAND,NJ,08360,,,We Want You More
SICKLERVILLE,NJ,080814949,,,We Want You More
MOUNT HOLLY,NJ,08060,,,We Want You More
CLEMENTON,NJ,080213834,,,We Want You More
MONTCLAIR,NJ,07042,,,We Want You More
AUDUBON,NJ,081061332,,,We Want You More
HOWELL,NJ,077311437,,,We Want You More
BLACKWOOD,NJ,080125518,,,We Want You More
ATCO,NJ,080042034,,,We Want You More
BURLINGTON,MA,01803,,,We Want You More
CREAM RIDGE,NJ,08514,,,We Want You More
SICKLERVILLE,NJ,080811872,,,We Want You More
HAMILTON,NJ,08620,,,We Want You More
BLACKWOOD,NJ,08012,,,We Want You More
MT HOLLY TOWNSHIP,NJ,08060,,,We Want You More
CAMDEN,NJ,081032813,,,We Want You More
GLOUCESTER CITY,NJ,080301362,,,We Want You More
WEST BERLIN,NJ,08091,,,We Want You More
CAMDEN,NJ,081051408,,,We Want You More
BURLINGTON,NJ,08016,,,We Want You More
MARLTON,NJ,080533832,,,We Want You More
CAMDEN,NJ,081052414,,,We Want You More
PENNSAUKEN TOWNSHIP,NJ,08109,,,We Want You More
CAMDEN,NJ,08102,,,We Want You More
CAMDEN,NJ,08103,,,We Want You More
BLACKWOOD,NJ,080124101,,,We Want You More
HAMILTON,NJ,086103616,,,We Want You More
SICKLERVILLE,NJ,080814700,,,We Want You More
WESTAMPTON,NJ,080602363,,,We Want You More
TOMS RIVER,NJ,087531320,,,We Want You More
IRVINGTON,NJ,07111,,,We Want You More
BLACKWOOD,NJ,08012,,,We Want You More
OAKLYN,NJ,08107,,,We Want You More
ATTLEBORO,MA,02703,,,We Want You More
CAMDEN,NJ,08104,,,We Want You More
WOODSTOWN,NJ,080981335,,,We Want You More
MOUNT LAUREL,NJ,080543254,,,We Want You More
MULLICA HILL,NJ,08062,,,We Want You More
CAMDEN,NJ,08105,,,We Want You More
OTTAWA,,,,,We Want You More
PENNSAUKEN TOWNSHIP,NJ,08109,,,We Want You More
HAZLET,NJ,077302649,,,We Want You More
SICKLERVILLE,NJ,08081,,,We Want You More
CAMDEN,NJ,08104,,,We Want You More
CAMDEN,NJ,081042852,,,We Want You More
LINDENWOLD,NJ,080213510,,,We Want You More
MAPLE SHADE,NJ,080523111,,,We Want You More
WEST BERLIN,NJ,080913813,,,We Want You More
WILDWOOD,NJ,08260,,,We Want You More
VOORHEES,NJ,08043,,,We Want You More
BELLMAWR,NJ,080311723,,,We Want You More
HIGH BRIDGE,NJ,08829,,,We Want You More
STEWARTSVILLE,NJ,08886,,,We Want You More
AUDUBON,NJ,081061103,,,We Want You More
CHERRY HILL,NJ,080341725,,,We Want You More
NEW BRUNSWICK,NJ,08901,,,We Want You More
SICKLERVILLE,NJ,080819642,,,We Want You More
JACKSON TOWNSHIP,NJ,08527,,,We Want You More
MATAWAN,NJ,07747,,,We Want You More
FREEHOLD,NJ,077283738,,,We Want You More
VINELAND,NJ,083603319,,,We Want You More
ABSECON,NJ,08201,,,We Want You More
MONTCLAIR,NJ,07042,,,We Want You More
NEW BRUNSWICK,NJ,08901,,,We Want You More
MARTINSVILLE,NJ,088362143,,,We Want You More
EGG HARBOR TOWNSHIP,NJ,082346013,,,We Want You More
COLLINGSWOOD,NJ,081081526,,,We Want You More
PHILA,PA,191362704,,,We Want You More
WILLINGBORO,NJ,080461808,,,We Want You More
ATCO,NJ,080041149,,,We Want You More
DELRAN,NJ,080752854,,,We Want You More
PENNSAUKEN,NJ,08109,,,We Want You More
CHERRY HILL,NJ,080033848,,,We Want You More
CAMDEN,NJ,081021801,,,We Want You More
WEST BERLIN,NJ,080911248,,,We Want You More
WEST DEPTFORD,NJ,08096,,,We Want You More
CAMDEN,NJ,08102,,,We Want You More
WILLIAMSTOWN,NJ,08094,,,We Want You More
PENNSAUKEN,NJ,081101731,,,We Want You More
EWING,NJ,086283333,,,We Want You More
CHERRY HILL,NJ,080033627,,,We Want You More
CHERRY HILL,NJ,08034,,,We Want You More
CHERRY HILL,NJ,08003,,,We Want You More
MEDFORD,NJ,080553806,,,We Want You More
MAYVILLE,NY,147571010,,,We Want You More
TOMS RIVER,NJ,08753,,,We Want You More
PENNSAUKEN,NJ,08110,,,We Want You More
EDISON,NJ,08817,,,We Want You More
OAKLYN,NJ,08107,,,We Want You More
NEW CASTLE,DE,197208751,,,We Want You More
THE BRONX,NY,10466,,,We Want You More
PLAINFIELD,NJ,07060,,,We Want You More
VOORHEES,NJ,08043,,,We Want You More
WEST BERLIN,NJ,08091,,,We Want You More
NEWARK,NJ,07108,,,We Want You More
BENSALEM,PA,190204401,,,We Want You More
WILLINGBORO,NJ,080462303,,,We Want You More
MORGANVILLE,NJ,077512012,,,We Want You More
MORGANVILLE,NJ,077512012,,,We Want You More
VOORHEES,NJ,08043,,,We Want You More
EDISON,NJ,08837,,,We Want You More
SOUTH AMBOY,NJ,08879,,,We Want You More
WEST WINDSOR TOWNSHIP,NJ,08550,,,We Want You More
PHILADELPHIA,PA,19121,,,We Want You More
BROWNS MILLS,NJ,080155444,,,We Want You More
SICKLERVILLE,NJ,080811249,,,We Want You More
WILLINGBORO,NJ,080461901,,,We Want You More
HAMMONTON,NJ,08037,,,We Want You More
WENONAH,NJ,080901517,,,We Want You More
PINE HILL,NJ,08021,,,We Want You More
BLACKWOOD,NJ,080124433,,,We Want You More
PENNSAUKEN,NJ,08109,,,We Want You More
CAMDEN,NJ,081021005,,,We Want You More
BEACHWOOD,NJ,08722,,,We Want You More
PARLIN,NJ,08859,,,We Want You More
BERLIN,NJ,080099029,,,We Want You More
CAMDEN,NJ,08102,,,We Want You More
ENGLISHTOWN,NJ,07726,,,We Want You More
MAYS LANDING,NJ,08330,,,We Want You More
CHERRY HILL,NJ,080033644,,,We Want You More
CHERRY HILL,NJ,080033832,,,We Want You More
BERLIN,NJ,080091188,,,We Want You More
PORTOLA HILLS,CA,92679,,,We Want You More
CAMDEN,NJ,08104,,,We Want You More
BLACKWOOD,NJ,080124717,,,We Want You More
REGION 10,,00000,,,We Want You More
MOUNT LAUREL,NJ,08054,,,We Want You More
WEST DEPTFORD,NJ,08096,,,We Want You More
MAYS LANDING,NJ,083302910,,,We Want You More
PENNSAUKEN,NJ,081101828,,,We Want You More
RIO GRANDE,NJ,082421902,,,We Want You More
WILLIAMSTOWN,NJ,080942325,,,We Want You More
CHERRY HILL,NJ,080031720,,,We Want You More
BURLINGTON,NJ,08016,,,We Want You More
WILLINGBORO,NJ,080463621,,,We Want You More
TRENTON,NJ,086291723,,,We Want You More
CHERRY HILL,NJ,080021811,,,We Want You More
MOUNT LAUREL,NJ,08054,,,We Want You More
STRATFORD,NJ,08084,,,We Want You More
ATCO,NJ,080041734,,,We Want You More
WILLINGBORO,NJ,080462601,,,We Want You More
MEDFORD,NJ,08055,,,We Want You More
SICKLERVILLE,NJ,080813406,,,We Want You More
BELLMAWR,NJ,08031,,,We Want You More
RIVERTON,NJ,08077,,,We Want You More
HADDONFIELD,NJ,080333049,,,We Want You More
MOUNT ROYAL,NJ,08061,,,We Want You More
AUDUBON,NJ,08106,,,We Want You More
OAKLYN,NJ,081072220,,,We Want You More
VILLAS,NJ,082511344,,,We Want You More
BURLINGTON,NJ,08016,,,We Want You More
MANTUA,NJ,08051,,,We Want You More
CAMDEN,NJ,08105,,,We Want You More
CAMDEN,NJ,08105,,,We Want You More
CLEMENTON,NJ,080216915,,,We Want You More
DEPTFORD,NJ,08096,,,We Want You More
EASTAMPTN TOWNSHIP,NJ,08060,,,We Want You More
CAMDEN,NJ,08103,,,We Want You More
BLACKWOOD,NJ,08012,,,We Want You More
CHERRY HILL,NJ,080033432,,,We Want You More
SICKLERVILLE,NJ,080813403,,,We Want You More
STRATFORD,NJ,08084,,,We Want You More
LINDENWOLD,NJ,080216709,,,We Want You More
DELRAN,NJ,080752031,,,We Want You More
PLEASANTVILLE,NJ,08232,,,We Want You More
CINNAMINSON,NJ,080771925,,,We Want You More
CHERRY HILL,NJ,080343714,,,We Want You More
HAMMONTON,NJ,08037,,,We Want You More
EDISON,NJ,08817,,,We Want You More
VINELAND,NJ,083602644,,,We Want You More
WILLIAMSTOWN,NJ,08094,,,We Want You More
PENNSVILLE,NJ,080703641,,,We Want You More
VOORHEES,NJ,080433303,,,We Want You More
SEWELL,NJ,08080,,,We Want You More
PENNSAUKEN,NJ,08109,,,We Want You More
CHERRY HILL,NJ,080343650,,,We Want You More
ROSELLE,NJ,07203,,,We Want You More
MARGATE CITY,NJ,084021042,,,We Want You More